ID,Sparte,Institution,Adresse,PLZ,Ort,lat,lon,Webseite,,
1,PROJEKTRAUM/PROJEKTINITIATIVE,7hours HAUS 19 arts & concerts,Reinhardtstr. 18-20,10117,Berlin,52.5235492,13.3847587,http://www.7hours.com/,,
2,PROJEKTRAUM/PROJEKTINITIATIVE,A TRANS,Baerwaldstr. 49,10961,Berlin,52.4911318,13.4018401,www.atrans.org,,
3,"BÜHNEN, THEATER",Acker Stadt Palast - Freie Bühne Mitte e.V.,Ackerstr. 169/170,10115,Berlin,52.52974,13.39659,www.ackerstadtpalast.de,,
4,"KUNST-/KULTURHÄUSER, KULTURVEREINE","ACUD Gallery, Studio, Club",Veteranenstraße 21D,10119,Berlin,52.533432,13.4009334,www.acudmachtneu.de,,
5,TANZ / PERFORMANCE,ada Studio & Bühne für zeitgenössischen Tanz,Uferstraße 23,13357,Berlin,52.5518019,13.3748991,http://www.ada-studio.de/,,
6,BIBLIOTHEK,Adolf-Reichwein-Bibliothek,Berkaer Platz 1,14199,Berlin,52.4777,13.28801,https://www.wir-bieten-vielfalt-einen-ort.de/adolf-reichwein-bibliothek/,,
7,"BÜHNEN UND THEATER, ARCHIVE UND BIBLIOTHEKEN, LITERATUR, BILDENDE KUNST, DARSTELLENDE KUNST, TANZ / PERFORMANCE",AFROTAK TV cyberNomads - The Black German Academia Art Media Culture Archive since 2001,Auguststrasse 10,10117,Berlin,52.52644,13.39412,https://afrotak.com/,,
8,BILDENDE KUNST,after the butcher,Spittastr.25,10317,Berlin,52.50406,13.47896,www.after-the-butcher.de,,
9,"ARCHIVE UND BIBLIOTHEKEN, BILDENDE KUNST",AiR Berlin Alexanderplatz,Schönebergerstraße 13,10963,Berlin,52.4643893,13.3302153,http://airberlinalexanderplatz.de/de/,,
10,"KUNST-/KULTURHÄUSER, KULTURVEREINE",Aktives Museum,Stauffenbergstraße 13-14,10785,Berlin,52.50768,13.36306,https://www.aktives-museum.de,,
11,PROJEKTRAUM/PROJEKTINITIATIVE,alpha nova-kulturwerkstatt & galerie futura,Am Flutgraben 3,12435,Berlin,52.4970977,13.4516979,www.alpha-nova-kulturwerkstatt.de,,
12,"LITERATUR, BILDENDE KUNST, MUSIK, SONSTIGES",Alte Dorfschule Rudow e.V.,Alt Rudow 60,12355,Berlin,52.4175979,13.4954824,http://alte.dorfschule-rudow.de/,,
13,"KUNST-/KULTURHÄUSER, KULTURVEREINE",Alte Möbelfabrik,Karlstr. 12,12555,Berlin,48.680019,10.1530523,http://alte-moebelfabrik.de/,,
14,PROJEKTRAUM/PROJEKTINITIATIVE,"altes Projekt: ADN Pförtnerhaus, Statsion und TACHO; neu: CNTRM",Straße der Pariser Kommune; Franz-Mehring-Platz,10243,Berlin,52.5139565,13.4397162,christofzwiener.de,,
15,BIBLIOTHEK,Amerika-Gedenkbibliothek,Blücherplatz 1,10961,Berlin,52.4963116,13.3903134,https://www.zlb.de,,
16,"BÜHNEN, THEATER",andcompany & Co,Mariannenplatz 2,10997,Berlin,52.5038945,13.4240746,http://www.andco.de/,,
17,BIBLIOTHEK,Anna-Seghers-Bibliothek,Prerower Platz 2,13051,Berlin,52.5650537,13.5061303,https://www.berlin.de/ba-lichtenberg/auf-einen-blick/buergerservice/bildung/artikel.298017.php,,
18,BIBLIOTHEK,Anton-Saefkow-Bibliothek,Anton-Saefkow-Platz 14,10369,Berlin,52.5306033,13.4709696,https://www.berlin.de/ba-lichtenberg/auf-einen-blick/buergerservice/bildung/artikel.298020.php,,
19,PROJEKTRAUM/PROJEKTINITIATIVE,Apartment Project Berlin,Hertzbergstr. 13,12055,Berlin,52.4770176,13.4480445,berlin.apartmentproject.org,,
20,"KUNSTGALERIEN, AUSSTELLUNGSRÄUME","Arbeitskreis Kommunale Galerien Berlin (KGB), c/o Kunstverein Tiergarten e.V.",Turmstraße 75,10551,Berlin,52.5266505,13.333852,http://kgberlin.net/,,
21,"BAUDENKMÄLER, SCHLÖSSER, GÄRTEN",Archäologischer Keller,Reformationsplatz 3-4,13597,Berlin,52.5379498,13.2051341,http://www.kulturfuehrer-berlin.de/index.php?hk=11&uk=45&b=0&pid=2183&e=4,,
22,PROJEKTRAUM/PROJEKTINITIATIVE,Art Laboratory Berlin,Prinzenallee 34,13359,Berlin,52.5580132,13.386037,www.artlaboratory-berlin.org,,
23,PROJEKTRAUM/PROJEKTINITIATIVE,art.endart,Drontheimer Str. 22/23,13359,Berlin,52.56023,13.37659,www.koloniewedding.de/artendart,,
24,PROJEKTRAUM/PROJEKTINITIATIVE,ARTITUDE e.V.,Cuvrystraße 3-4,10997,Berlin,52.4999627,13.4458798,www.artitu.de,,
25,"KUNSTGALERIEN, AUSSTELLUNGSRÄUME",Artothek,Hohenzollerndamm 176,10713,Berlin,52.4894393,13.3118077,https://www.villa-oppenheim-berlin.de/,,
26,"BÜHNEN, THEATER",Astrid-Lindgren-Bühne im Fez,Straße zum FEZ 2,12459,Berlin,52.4612165,13.5490931,https://astrid-lindgren-buehne.fez-berlin.de/,,
27,"KUNSTGALERIEN, AUSSTELLUNGSRÄUME",Atelierhof Kreuzberg,Schleiermacherstr. 31-37,10961,Berlin,52.492551,13.399023,http://www.atelierhof-kreuzberg.com/,,
28,"BÜHNEN, THEATER",ATZE Musiktheater,Luxemburger Str. 20,13353,Berlin,52.54263,13.35193,http://www.atzeberlin.de,,
29,"BÜHNEN, THEATER",aufBruch - KUNST GEFÄNGNIS STADT,Pappelallee 7,10437,Berlin,52.5422153,13.4138776,https://www.gefaengnistheater.de/#,,
30,"BÜHNEN, THEATER",AUSLAND - Territory for arts and collateral damage,Lychener Str. 60,10437,Berlin,52.5448412,13.4197262,https://ausland-berlin.de/,,
31,"KUNSTGALERIEN, AUSSTELLUNGSRÄUME",Ausstellungszentrum Pyramide,Riesaer Str. 94,12627,Berlin,52.5310817,13.6154831,http://www.kultur-marzahn-hellersdorf.de/AUSSTELLUNGSZENTRUM-PY.12.0.html,,
32,"KUNSTGALERIEN, AUSSTELLUNGSRÄUME",Axel Obiger,Brunnenstraße 29,10119,Berlin,52.534476,13.3986033,www.axelobiger.com,,
33,"BÜHNEN, THEATER",Ballhaus Naunynstraße,Naunynstr. 27,10997,Berlin,52.5020343,13.4212979,http://www.ballhausnaunynstrasse.de/,,
34,"BÜHNEN, THEATER",Ballhaus Ost,Pappelallee 15,10437,Berlin,52.5430652,13.4148661,https://www.ballhausost.de/,,
35,"BAUDENKMÄLER, SCHLÖSSER, GÄRTEN",Baudenkmal,Schustehrusstraße 13,14059,Berlin,52.5172241,13.3038398,https://www.villa-oppenheim-berlin.de/museum/baudenkmaeler/schustehrusstrasse-13.html,,
36,PROJEKTRAUM/PROJEKTINITIATIVE,BcmArte,Manteuffelstr. 24,10997,Berlin,52.4587838,13.3755654,www.berlinconmuchoarte.com,,
37,PROJEKTRAUM/PROJEKTINITIATIVE,Bel Etage,,,Berlin,,,bel-etage-projects.com,,wechselnde Ausstellungsräume
38,"BILDENDE KUNST, TANZ / PERFORMANCE",Berlin con mucho Arte (BcmA),"Manteuffelstr., 42",10997,Berlin,52.458312,13.3764109,http://www.berlinconmuchoarte.com/,,
39,"ARCHIVE UND BIBLIOTHEKEN, LITERATUR",Berliner Blindenhörbücherei gGmbH,Auerbachstraße 7,14193,Berlin,52.4864291,13.2620591,http://bhb.absv.de/,,
40,"BÜHNEN, THEATER",Berliner Ensemble,Bertolt-Brecht-Platz 1,10117,Berlin,52.5222176,13.3851929,https://www.berliner-ensemble.de,,
41,SONSTIGES,Berliner Festspiele,Schaperstraße 24,10719,Berlin,52.4984457,13.3286464,https://www.berlinerfestspiele.de,,
42,"LITERATUR, BILDENDE KUNST, MUSIK, SONSTIGES",Berliner Künstlerprogramm des DAAD,Makrgrafenstraße 37,10117,Berlin,52.5134042,13.3934685,http://www.berliner-kuenstlerprogramm.de/,,
43,BIBLIOTHEK,Berliner Stadtbibliothek,Breite Straße 30 – 36,10178,Berlin,52.51534,13.40446,https://www.zlb.de,,
45,MUSEUM,"Berlinische Galerie, Landesmuseum für Moderne Kunst, Fotografie und Architektur",Akte Jakobstr. 124-128,10969,Berlin,52.5037618,13.3986995,https://www.berlinischegalerie.de/home/,,
46,PROJEKTRAUM/PROJEKTINITIATIVE,Berlin-Weekly,Linienstr. 160,10115,Berlin,52.5278498,13.3949749,berlin-weekly.com,,
47,"KUNSTGALERIEN, AUSSTELLUNGSRÄUME",Bernhard-Heiliger-Stiftung,Käuzchensteig 8,14195,Berlin,52.4663,13.27435,https://bernhard-heiliger-stiftung.de/,,
48,BIBLIOTHEK,Bettina-von-Arnim-Bibliothek,Schönhauser Allee 75,10439,Berlin,52.549214,13.4141009,https://www.berlin.de/stadtbibliothek-pankow/bibliotheken/bettina-von-arnim-bibliothek/,,
49,MUSEUM,Bezirksmuseum/ Haus 1,Alt-Marzahn 51 / 55,12685,Berlin,52.5431362,13.5609464,http://www.kultur-marzahn-hellersdorf.de/BEZIRKSMUSEUM-MARZAHN.11.0.html,,
50,BIBLIOTHEK,Bezirkszentralbibliothek,Carl-Schurz-Straße 13,13597,Berlin,52.5361344,13.2013573,https://www.berlin.de/stadtbibliothek-spandau/bibliotheken/bezirkszentralbibliothek/,,
51,BIBLIOTHEK,Bezirkszentralbibliothek Mark Twain,Marzahner Promenade 52 – 54,12679,Berlin,52.5472261,13.5554319,https://www.berlin.de/bibliotheken-mh/bibliotheken/bezirkszentralbibliothek-mark-twain/,,
52,BIBLIOTHEK,Bezirkszentralbibliothek Philipp Schaeffer,Brunnenstraße 181,10119,Berlin,52.5316435,13.3992672,https://www.berlin.de/stadtbibliothek-mitte/bibliotheken/bezirkszentralbibliothek-philipp-schaeffer/,,
53,"LITERATUR, BILDENDE KUNST, MUSIK, SONSTIGES",bi’bak e.V.,Prinzenallee 59,13359,Berlin,52.5577572,13.3851599,www.bi-bak.de,,
54,BIBLIOTHEK,Bibliothek am Luisenbad,Travemünder Straße 2 / ecke Badstraße,13357,Berlin,52.5552512,13.3810122,https://www.berlin.de/stadtbibliothek-mitte/bibliotheken/bibliothek-am-luisenbad/,,
55,BIBLIOTHEK,Bibliothek am Schäfersee,Stargardtstraße 11–13,13407,Berlin,52.566,13.36005,https://www.berlin.de/stadtbibliothek-reinickendorf/bibliotheken/bibliothek-am-schaefersee/artikel.336756.php,,
56,BIBLIOTHEK,Bibliothek am Wasserturm,Prenzlauer Allee 227/228,10405,Berlin,52.5332325,13.420337,https://www.berlin.de/stadtbibliothek-pankow/bibliotheken/bibliothek-am-wasserturm/,,
57,BIBLIOTHEK,Bibliothek Eva-Maria-Buch-Haus,Götzstraße 8/10/12,12099,Berlin,52.4645293,13.3873495,https://www.berlin.de/stadtbibliothek-tempelhof-schoeneberg/bibliotheken/bezirkszentralbibliothek/,,
58,BIBLIOTHEK,Bibliothek im Märkischen Viertel,Wilhelmsruher Damm 142 c,13439,Berlin,52.59764,13.35225,https://www.berlin.de/stadtbibliothek-reinickendorf/bibliotheken/bibliothek-im-maerkischen-viertel/artikel.336916.php,,
59,BIBLIOTHEK,Bibliothek Tiergarten-Süd,Lützowstraße 27,10785,Berlin,52.5037572,13.3635324,https://www.berlin.de/stadtbibliothek-mitte/bibliotheken/bibliothek-tiergarten-sued/,,
60,PROJEKTRAUM/PROJEKTINITIATIVE,Bibliothekswohnung,Ziegelstr. 2,10117,Berlin,53.8704954,10.667444,www.acgebbers.com/Anna-Catharina_Gebbers___Bibliothekswohnung/PRESENT.html,,
61,WERKSTATT,Bildhauerwerkstatt im Kulturwerk des bbk berlin GmbH,Osloer Straße 102,13359,Berlin,52.55514,13.37972,https://www.bbk-kulturwerk.de/con/kulturwerk/front_content.php?idcat=46,,
62,BÜHNEN UND THEATER,BKA - Berliner Kabarett Anstalt,Mehringdamm 34,10961,Berlin,52.4936128,13.3877004,https://www.bka-theater.de/,,
63,BIBLIOTHEK,Bodo-Uhse-Bibliothek,Erich-Kurz-Straße 9,10319,Berlin,52.4975972,13.5204184,https://www.berlin.de/ba-lichtenberg/auf-einen-blick/buergerservice/bildung/artikel.298025.php,,
64,MUSEUM,Brücke Museum,Bussardsteig 9,14195,Berlin,52.46682,13.27455,http://www.bruecke-museum.de/,,
65,BIBLIOTHEK,Bruno-Lösche-Bibliothek,Perleberger Straße 33,10559,Berlin,52.5313703,13.3474162,https://www.berlin.de/stadtbibliothek-mitte/bibliotheken/bruno-loesche-bibliothek/,,
66,PROJEKTRAUM/PROJEKTINITIATIVE,Büro komPleX,Alte Jakobstraße 12,10969,Berlin,52.503931,13.3993781,www.buerokomplex.net,,
67,"KUNST-/KULTURHÄUSER, KULTURVEREINE",C/O Berlin / Expose Berlin,Hardenbergstraße 22-24,10623,Berlin,52.5065616,13.3304503,www.co-berlin.org,,
68,BILDENDE KUNST,Camping Akademie e.V.,Bizetstrasse 99,13088,Berlin,52.5492674,13.459786,www.campingakademie.org,,
69,PROJEKTRAUM/PROJEKTINITIATIVE,Center Berlin,Kurfürstenstraße 174,10785,Berlin,52.4987163,13.3688164,coeval.gen.in,,
70,BILDENDE KUNST,Centrum,Reuterstr. 7,12053,Berlin,52.4821472,13.4295124,http://www.centrumberlin.com/,,
71,"OPERN, KONZERTHÄUSER, CHÖRE",Chorverband Berlin e.V.,Eichendorffstr. 18,10115,Berlin,49.1182502,12.1276682,https://www.chorverband-berlin.de,,
72,TANZSTUDIO/ PERFORMANCE,cie toula limnaios,Am Friedrichshain 33,10407,Berlin,52.5283962,13.4256794,https://toula.de/,,
73,"KUNSTGALERIEN, AUSSTELLUNGSRÄUME",CIRCLE1 Gallery,Hauptstraße 101,10827,Berlin,52.4796075,13.3459242,circle1berlin.com,,
74,"BÜHNEN, THEATER",Club der Polnischen Versager,Ackerstraße 168,10115,Berlin,52.529941,13.3970948,http://www.polnischeversager.de/,,
75,,cobratheater.cobra,,,,,,www.cobratheatercobra.com/,,
76,MUSEUM,Computerspielemuseum,Karl-Marx-Allee 93a,10243,Berlin,52.51769,13.442,http://www.computerspielemuseum.de/,,
77,PROJEKTRAUM/PROJEKTINITIATIVE,Concent Art e.V.,Kreuzbergstr.28,10965,Berlin,52.4897411,13.3780861,http://www.concentart.org/d/index.html,,
78,"KUNST-/KULTURHÄUSER, KULTURVEREINE",ConSense - Ges. zur Förderung von Kultur mbH (Kulturbrauerei),Schönhauser Allee 36,10435,Berlin,52.5386047,13.4130561,https://www.kesselhaus.net/,,
79,PROJEKTRAUM/PROJEKTINITIATIVE,COPYRIGHTberlin,Schwedenstr. 16,13357,Berlin,52.5551018,13.3752283,www.copyrightberlin.de,,
80,"LITERATUR, MUSIK, SONSTIGES",cx::pm crosxconcepts berlin,wilkestr 21,13507,Berlin,52.59005,13.2746299,http://concepts.crosx.net/imprint/,,
81,"BÜHNEN UND THEATER, SONSTIGES",CyberRäuber GbR,Chodowieckistrasse 10,10405,Berlin,52.5369681,13.4287001,http://wp11159761.server-he.de/vtheater/de/home/,,
82,"KUNSTGALERIEN, AUSSTELLUNGSRÄUME",DAAD e.V.,Markgrafenstraße 37,10117,Berlin,52.5134042,13.3934685,http://www.daadgalerie.de/,,
83,TANZSTUDIO/ PERFORMANCE,Dachverband Zeitgenössischer Tanz Berlin e.V.,Klosterstr. 68-70,10179,Berlin,52.5174263,13.4125435,http://www.ztberlin.de/,,
84,PROJEKTRAUM/PROJEKTINITIATIVE,Dada Post,Nordbahnstraße 10,13409,Berlin,48.2281847,16.3879917,www.dadapost.com,,
85,"BÜHNEN, THEATER",Das Helmi,Pappelallee 15,10437,Berlin,52.5430652,13.4148661,http://www.das-helmi.de/,,
86,"BÜHNEN UND THEATER, DARSTELLENDE KUNST",DAS WEITE THEATER e.V.,Parkaue 23,10367,Berlin,52.5164983,13.4765684,http://www.das-weite-theater.de/,,
87,MUSEUM,DDR Museum,Karl-Liebknecht-Str. 1,10178,Berlin,52.5193236,13.4026364,https://www.ddr-museum.de/de,,
88,"OPERN, KONZERTHÄUSER UND CHÖRE",Deutsche Oper Berlin,Richard-Wagner-Straße 10,10585,Berlin,48.1475777,11.5643427,https://www.deutscheoperberlin.de/,,
89,MUSEUM,Deutsches Historisches Museum,Unter den Linden 2,10117,Berlin,52.5187801,13.3965906,https://www.dhm.de,,
90,"OPERN, KONZERTHÄUSER UND CHÖRE",Deutsches Symphonie-Orchester Berlin,Masurenallee 16-20,14057,Berlin,52.50908,13.27479,https://www.dso-berlin.de/de/,,
91,"BÜHNEN, THEATER",Deutsches Theater / Kammerspiele,Schumannstraße 13a,10117,Berlin,52.5242377,13.3816481,https://www.deutschestheater.de/,,
92,PROJEKTRAUM/PROJEKTINITIATIVE,die raum,Oderberger Str. 56,10435,Berlin,52.5381574,13.4101623,www.dieraum.net,,
93,BIBLIOTHEK,Dietrich-Bonhoeffer-Bibliothek,Brandenburgische Straße 2,10713,Berlin,52.4871776,13.3200489,https://www.wir-bieten-vielfalt-einen-ort.de/dietrich-bonhoeffer-bibliothek/,,
94,SONSTIGES,digiS - Forschungs- und Kompetenzzentrum Digitalisierung / Zuse-Institut,Takustraße 7,14195,Berlin,52.45554,13.29774,https://www.digis-berlin.de/,,
95,PROJEKTRAUM/PROJEKTINITIATIVE,Directors Lounge,Petersburger Platz 2,10249,Berlin,52.5215718,13.4494716,directorslounge.net,,
96,"BÜHNEN UND THEATER, DARSTELLENDE KUNST, TANZ / PERFORMANCE",DOCK 11 GmbH,Kastanienallee 79,10435,Berlin,52.5366389,13.408051,http://www.dock11-berlin.de/,,
97,GEDENKSTÄTTE,Dokumentationszentrum NS-Zwangsarbeit Berlin-Schöneweide,Britzer Str. 5,12439,Berlin,52.4531947,13.518086,http://www.dz-ns-zwangsarbeit.de/,,
98,PROJEKTRAUM/PROJEKTINITIATIVE,Donau-Ecke Ganghofer,Dieffenbachstr. 35,10967,Berlin,52.4917379,13.4191531,donaugang.wordpress.com/,,
99,MUSEUM,Dorfklub Müggelheim,Alt-Müggelheim 21,12559,Berlin,52.4120332,13.6623126,http://www.mueggelheimer-heimatverein.de/,,
100,BILDENDE KUNST,Eberhard Bosslet,Weidenweg 69,10247,Berlin,51.437326,6.7498675,http://www.bosslet.com,,
101,BIBLIOTHEK,Eberhard-Alexander-Burgh-Bibliothek,Rüdesheimer Straße 14,14197,Berlin,50.0752824,8.2289158,https://www.wir-bieten-vielfalt-einen-ort.de/eberhard-alexander-burgh-bibliothek/,,
102,BIBLIOTHEK,Edith-Stein-Bibliothek,Briesingstraße 6,12307,Berlin,52.38568,13.39874,https://www.berlin.de/stadtbibliothek-tempelhof-schoeneberg/bibliotheken/stadtteilbibliothek-lichtenrade/,,
103,"MUSEUM, ARCHIVE UND BIBLIOTHEKEN","EFGAMP e.V. (European Federations of Game Archives, Museums and Preservation Projects)",Spittastr. 13,10317,Berlin,52.50505,13.47954,,,
104,BIBLIOTHEK,Egon-Erwin-Kisch-Bibliothek,Frankfurter Allee 149,10365,Berlin,52.5133041,13.4813588,https://www.berlin.de/ba-lichtenberg/auf-einen-blick/buergerservice/bildung/artikel.298028.php,,
105,"BÜHNEN, THEATER",Ehemaliges Stummfilmkino Delphi,Gustav-Adolf-Straße 2,13086,Berlin,52.5517802,13.4313946,http://ehemaliges-stummfilmkino-delphi.de/,,
106,BIBLIOTHEK,Else-Ury-Bibliothek,Glogauer str. 13,10999,Berlin,52.4926268,13.4362823,https://www.berlin.de/stadtbibliothek-friedrichshain-kreuzberg/bibliotheken/familienbibliothek-glogauer-strasse/,,
107,"BÜHNEN, THEATER",English Theatre Berlin,Fidicinstraße 40,10965,Berlin,52.4871936,13.3885053,https://www.etberlin.de/,,
108,MUSIK,Ensemble KNM Berlin,"Podewil, Klosterstr. 68",10179,Berlin,52.517716,13.4124572,https://www.kammerensemble.de/,,
109,PROJEKTRAUM/PROJEKTINITIATIVE,Errant Sound (Errant Bodies),Kollwitzstrasse 97,10435,Berlin,52.53918,13.4208,errantsound.net,,
110,PROJEKTRAUM/PROJEKTINITIATIVE,Experimentalsystem,,,Berlin,,,www.experimentalsystem.net,,
111,"KUNST-/KULTURHÄUSER, KULTURVEREINE",f3 – freiraum für fotografie,Waldemarstraße 17,10179,Berlin,52.4989716,13.4280437,http://fhochdrei.org/,,
112,PROJEKTRAUM/PROJEKTINITIATIVE,Farbvision,Schönhauser Allee 28,10435,Berlin,52.5365701,13.4128896,www.farbvision.net,,
113,"MUSEUM, ARCHIVE UND BIBLIOTHEKEN",FHXB Friedrichshain-Kreuzberg Museum,Adalbertstr. 95a,10999,Berlin,52.500643,13.418469,https://www.fhxb-museum.de/,,
114,"BÜHNEN, THEATER",Figurentheater Grashüpfer,Puschkinallee 16 A,12435,Berlin,52.49164,13.46647,http://theater-treptower-park.de/,,
115,PROJEKTRAUM/PROJEKTINITIATIVE,FIT – freie internationale Tankstelle,Schwedter Str.262,10119,Berlin,52.5333749,13.4100558,www.f-i-t.org,,
116,"BÜHNEN, THEATER",Fliegendes Theater,Urbanstraße 100,10967,Berlin,52.48988,13.42205,http://www.fliegendes-theater.de/,,
117,PROJEKTRAUM/PROJEKTINITIATIVE,Flutgraben e.V.,Am Flutgraben 3,12435,Berlin,52.4970977,13.4516979,www.flutgraben.org,,
118,MUSEUM,Frauenmuseum Berlin e.V.,Goethestraße 37,10625,Berlin,50.1145772,8.672854,www.frauenmuseumberlin.de,,
119,MUSEUM,Freies Museum,Bülowstraße 90,10783,Berlin,52.4984823,13.360484,www.freies-museum.com/,,
120,"KUNST-/KULTURHÄUSER, KULTURVEREINE",Freilichtbühne Spandau,Am Juliusturm 62,13599,Berlin,52.5397012,13.2165944,http://kulturhaus-spandau.de/,,
121,"DARSTELLENDE KUNST, MUSIK, TANZ / PERFORMANCE",freutma e.V.,Krüllsstraße 2,12435,Berlin,52.4925578,13.4479077,https://freutma.de,,
122,"BÜHNEN, THEATER",Friedrichstadt-Palast,Friedrichstraße 107,10117,Berlin,52.5240494,13.3887209,https://www.palast.berlin/,,
123,BIBLIOTHEK,Friedrich-von-Raumer-Bibliothek,Dudenstr. 18 – 20,10965,Berlin,52.485185,13.3831476,https://www.berlin.de/stadtbibliothek-friedrichshain-kreuzberg/bibliotheken/stadtteilbibliothek-dudenstrasse/,,
124,BILDENDE KUNST,frontviews e.V.,Alt Moabit 41,10555,Berlin,52.52462,13.33272,http://www.frontviews.de/,,
127,PROJEKTRAUM/PROJEKTINITIATIVE,G.A.S–station,Tempelherrenstrasse 22,10961,Berlin,52.494637,13.400171,www.2gas-station.net,,
128,"KUNSTGALERIEN, AUSSTELLUNGSRÄUME",Galerie Crystal Ball,Schönleinstr. 7,10967,Berlin,52.4921445,13.4207943,www.galeriecrystalball.de,,
129,"KUNSTGALERIEN, AUSSTELLUNGSRÄUME",Galerie im Körnerpark,Schierker Str. 8,12051,Berlin,52.4717028,13.4380648,http://www.xn--krnerpark-07a.de/ausstellungen/,,
130,"KUNSTGALERIEN, AUSSTELLUNGSRÄUME",Galerie Loris,ehem. Potsdamer Str. 65,10785,Berlin,52.5035628,13.366542,lorisberlin.de,,
131,PROJEKTRAUM/PROJEKTINITIATIVE,Galerie M,Marzahner Promenade 46,12679,Berlin,52.5459238,13.554951,http://www.kultur-marzahn-hellersdorf.de/GALERIE-M.10.0.html,,
132,"KUNSTGALERIEN, AUSSTELLUNGSRÄUME",Galerie Nord,Turmstr. 75,10551,Berlin,52.5266505,13.333852,http://www.kunstverein-tiergarten.de/,,
133,"KUNSTGALERIEN, AUSSTELLUNGSRÄUME",Galerie Pankow,Breite Str. 8,13187,Berlin,52.5713584,13.4095849,https://galerie-pankow.de/,,
134,"KUNSTGALERIEN, AUSSTELLUNGSRÄUME",Galerie Wedding,Müllerstraße 146/147,13353,Berlin,52.5475028,13.3562332,http://galeriewedding.de/,,
135,"KUNSTGALERIEN, AUSSTELLUNGSRÄUME",galerie weisser elefant und Atelier Farbklang,Auguststr. 21,10119,Berlin,52.52676,13.39618,http://www.galerieweisserelefant.de/,,
136,"KUNSTGALERIEN, AUSSTELLUNGSRÄUME",GARTENSTUDIO – frisch & erfinderisch Leben Entwerfen e. V. i.G.,Naunystr. 53,10999,Berlin,52.50231,13.41814,www.gartenstudio.org,,
137,GEDENKSTÄTTEN,Gedenkstätte Berlin-Hohenschönhausen,Genslerstraße 66,13055,Berlin,52.5413581,13.5011448,https://www.stiftung-hsh.de/,,
138,GEDENKSTÄTTE,Gedenkstätte Deutscher Widerstand,Stauffenbergstraße 13-14,10785,Berlin,52.50768,13.36306,https://www.gdw-berlin.de/home/,,
139,"KUNST-/KULTURHÄUSER, KULTURVEREINE",Gemeinschaftshaus in der Gropiusstadt,Bat-Yam-Platz 1,12353,Berlin,52.425502,13.4614583,http://www.qm-gropiusstadt.de/185.0.html,,
140,"LITERATUR, BILDENDE KUNST, SONSTIGES",GERMAN TATAMI,Wriezenerstr.7,13359,Berlin,52.5568015,13.38892,www.german-tatami.de,,
141,BIBLIOTHEK,Gertrud-Kolmar-Bibliothek,Pallasstraße 27,10781,Berlin,52.4943826,13.3577659,https://www.berlin.de/stadtbibliothek-tempelhof-schoeneberg/bibliotheken/stadtteilbibliothek-schoeneberg-nord/,,
142,PROJEKTRAUM/PROJEKTINITIATIVE,Gitte Bohr c/o West Germany,Skalitzer Str. 133,10999,Berlin,52.499294,13.419727,www.gittebohr.de,,
143,"BÜHNEN UND THEATER, LITERATUR, BILDENDE KUNST, DARSTELLENDE KUNST, SONSTIGES",Glashaus. Verein der Nutzer der Brotfabrik e.V.,Caligariplatz 1,13086,Berlin,52.5526252,13.4305089,http://brotfabrik-berlin.de/,,
144,BILDENDE KUNST,GlogauAir gGmbH,Glogauer Str. 16,10999,Berlin,52.4921651,13.4358725,www.glogauair.net,,
145,DARSTELLENDE KUNST,Gob Squad Arts Collective,Skalitzer Str. 59,10999,Berlin,52.4997467,13.4363671,http://www.gobsquad.com/,,
146,"BAUDENKMÄLER, SCHLÖSSER, GÄRTEN",Gotisches Haus,Breite Str. 32,13597,Berlin,52.4746494,13.2924446,http://www.gotischeshaus.de/,,
147,BIBLIOTHEK,Gottfried-Benn-Bibliothek,Nentershäuser Platz 1,14163,Berlin,52.4320835,13.2554436,https://www.berlin.de/stadtbibliothek-steglitz-zehlendorf/bibliotheken/gottfried-benn-bibliothek/,,
148,PROJEKTRAUM/PROJEKTINITIATIVE,gr_und,Seestr. 49,13347,Berlin,52.5508098,13.3535485,www.gr-und.de/,,
149,"BIBLIOTHEK, GRAPHOTHEK",Graphothek Berlin,Königshorster Straße 6,13439,Berlin,52.5982546,13.3506178,https://www.graphothek-berlin.de/,,
150,MUSEUM,Grimmuseum,Fichtestraße 2,10967,Berlin,52.4910757,13.4128791,www.grimmuseum.com,,
151,"BÜHNEN, THEATER",Grips Theater,Altonaer Str. 22,10557,Berlin,52.5186697,13.3417558,http://www.grips-theater.de/,,
152,"KUNSTGALERIEN, AUSSTELLUNGSRÄUME",Group Global 3000,Leuschnerdamm 19,10999,Berlin,52.50465,13.41813,groupglobal3000.de,,
153,"BÜHNEN, THEATER",Hack-B-Theater,Stargarder Str. 74,10437,Berlin,52.5470334,13.4172582,https://www.facebook.com/Hack-B-Theater-364150807310412/,,
154,"BÜHNEN, THEATER",Hans Wurst Nachfahren,Gleditschstraße 5,10781,Berlin,52.49651,13.35541,http://www.hans-wurst-nachfahren.de/,,
155,BIBLIOTHEK,Hansabibliothek,Altonaer Straße 15,10557,Berlin,52.5172567,13.3428637,https://www.berlin.de/stadtbibliothek-mitte/bibliotheken/hansabibliothek/,,
156,MUSIK,Hans-Werner-Henze-Musikschule,Maratstraße 182,12683,Berlin,52.53214,13.55222,https://www.berlin.de/musikschule-mh/,,
157,"KUNSTGALERIEN, AUSSTELLUNGSRÄUME",Haus am Kleistpark,Grunewaldstr. 6/7,10823,Berlin,52.49057,13.35734,https://www.hausamkleistpark.de/,,
158,MUSEUM,Haus am Waldsee e. V.,Argentinische Allee 30,14163,Berlin,52.44202,13.23834,http://www.hausamwaldsee.de/index.php/de/,,
159,GEDENKSTÄTTE,Haus der Wannsee-Konferenz,Am Großen Wannsee 56-58,14109,Berlin,52.43233,13.16635,https://www.ghwk.de/,,
160,LITERATURHAUS,"Haus für Poesie (Trägerverein: Literaturbrücke Berlin e.V.; bis 2016 ""literaturWERKstatt Berlin"")",Knaackstraße 97,10435,Berlin,52.5403087,13.4142478,https://www.haus-fuer-poesie.org/de/literaturwerkstatt-berlin/home/,,
161,"BÜHNEN, THEATER","Hebbel am Ufer (HAU 1, 2, 3)",Hallesches Ufer 32,10963,Berlin,52.4990592,13.3862888,http://www.hebbel-am-ufer.de/,,
162,"BÜHNEN, THEATER",Heimathafen Neukölln,Karl-Marx-Straße 141,12043,Berlin,52.47696,13.4393647,https://www.heimathafen-neukoelln.de/,,
163,MUSEUM,Heimatmuseum Zehlendorf,Clayallee 355,14169,Berlin,52.4354799,13.2602746,http://www.heimatmuseum-zehlendorf.de/,,
164,"MUSEUM, ARCHIVE UND BIBLIOTHEKEN, LITERATUR, GEDENKSTÄTTEN, BILDENDE KUNST, MUSIK",Heimatverein Müggelheim e. V.,Seddiner Weg 10,12559,Berlin,52.2715724,13.0112585,https://www.mueggelheimer-heimatverein.de,,
165,BIBLIOTHEK,Heinrich-Böll-Bibliothek,Greifswalder Straße 87,10409,Berlin,52.5419506,13.4409369,https://www.berlin.de/stadtbibliothek-pankow/bibliotheken/heinrich-boell-bibliothek/,,
166,BIBLIOTHEK,Heinrich-Schulz-Bibliothek mit Musikabteilung,Otto-Suhr-Allee 96,10585,Berlin,52.5170515,13.3088395,https://www.wir-bieten-vielfalt-einen-ort.de/heinrich-schulz-bibliothek-mit-musikabteilung/,,
167,BIBLIOTHEK,Helene-Nathan-Bibliothek,Karl-Marx-Straße 66,12043,Berlin,52.4820247,13.4327194,https://www.berlin.de/stadtbibliothek-neukoelln/bibliotheken/bezirkszentralbibliothek-helene-nathan-bibliothek/,,
168,"KUNSTGALERIEN, AUSSTELLUNGSRÄUME",HilbertRaum,Reuterstr. 31,12047,Berlin,52.4875201,13.4292327,www.hilbertraum.org,,
169,"KUNSTGALERIEN, AUSSTELLUNGSRÄUME",Horse & Pony Fine Arts,Altenbrakerstraße 18,12053,Berlin,52.4704143,13.4320805,www.horseandponyfinearts.com/,,
170,SONSTIGES,Humboldt Forum Kultur GmbH,Rosenstraße 2,10178,Berlin,53.5535318,10.0021609,https://www.humboldtforum.com/de,,
171,MUSEUM,"Humboldt Forum, Museum des Ortes",Schloßplatz 7,10178,Berlin,49.5982726,11.0038131,https://humboldtforum.com/de/,,
172,BIBLIOTHEK,Humboldt-Bibliothek,Karolinenstraße 19,13507,Berlin,49.8908083,10.88494,https://www.berlin.de/stadtbibliothek-reinickendorf/bibliotheken/humboldt-bibliothek/,,
173,BILDENDE KUNST,iCollective e.V.,Pfarrstr. 120,10317,Berlin,52.5046641,13.4762208,www.icollective-berlin.com,,
174,"BÜHNEN UND THEATER, DARSTELLENDE KUNST, MUSIK, TANZ / PERFORMANCE",IKC ufaFabrik e.V.,Viktoriastr. 10-18,12105,Berlin,52.4544783,13.381799,https://www.ufafabrik.de/de,,
175,PROJEKTRAUM/PROJEKTINITIATIVE,IMPORT PROJECTS,Keithstrasse 10,10787,Berlin,52.5026662,13.3462355,import-projects.org,,
176,PROJEKTRAUM/PROJEKTINITIATIVE,Infernoesque,Leipziger Strasse 41,10117,Berlin,52.5101495,13.3942917,www.infernoesque.de,,
177,GEDENKSTÄTTE,Informationsort Schwerbelastungskörper,General-Pape-Str. / Loewenhardtdamm,12101,Berlin,52.484558,13.3721089,http://www.schwerbelastungskoerper.de/,,
178,BIBLIOTHEK,Ingeborg-Bachmann-Bibliothek,Nehringstraße 10,14059,Berlin,52.5145073,13.293845,https://www.wir-bieten-vielfalt-einen-ort.de/ingeborg-bachmann-bibliothek/,,
179,BIBLIOTHEK,Ingeborg-Drewitz-Bibliothek,Grunewaldstraße 3,12165,Berlin,52.457494,13.319924,https://www.berlin.de/stadtbibliothek-steglitz-zehlendorf/bibliotheken/ingeborg-drewitz-bibliothek/,,
180,PROJEKTRAUM/PROJEKTINITIATIVE,Institut für Alles Mögliche,Ackerstraße 18,10115,Berlin,52.5313424,13.3966893,www.i-a-m.tk,,
181,BIBLIOTHEK,Janusz-Korczak-Bibliothek,Berliner Straße 120/121,13187,Berlin,52.5686,13.41221,https://www.berlin.de/stadtbibliothek-pankow/bibliotheken/janusz-korczak-bibliothek/,,
182,"BÜHNEN, THEATER",JARO Theater,Schlangenbader Str. 30,14197,Berlin,52.471613,13.3076487,https://www.theater-jaro.de/,,
183,JUGEND-KULTURORGANISATION,Jeunesse Musicales Deutschland e.V.,Taunusstraße 6,12161,Berlin,50.110082,8.6686527,https://www.jmd.info/,,
184,BIBLIOTHEK,Johanna-Moosdorf-Bibliothek,Westendallee 45,14052,Berlin,52.5106633,13.2579324,https://www.wir-bieten-vielfalt-einen-ort.de/johanna-moosdorf-bibliothek/,,
185,MUSIKSCHULE,Joseph-Schmidt-Musikschule,Freiheit 15,12555,Berlin,52.4480955,13.5769115,https://www.berlin.de/musikschule-treptow-koepenick/,,
186,MUSEUM,Jüdisches Museum Berlin,Lindenstraße 9-14,10969,Berlin,52.501973,13.394973,https://www.jmberlin.de/,,
187,"BÜHNEN, THEATER",Jüdisches Theater,Meinekestraße 24,10719,Berlin,52.5021172,13.3293332,https://www.djthe.de,,
188,"MUSEUM, SONSTIGES",Jugend im Museum e.V.,Rigaer Straße 108,10247,Berlin,52.5184755,13.4541371,http://www.jugend-im-museum.de/,,
189,JUGEND-KULTURORGANISATION,Jugendkunstschule derArt,Heidenauer Straße 10,12627,Berlin,52.5361354,13.6094879,https://www.jugendkunstschule-der-art.de/,,
190,"BILDENDE KUNST, DARSTELLENDE KUNST",Jugendkunstschule Neukölln / YoungArts Neukölln,"Donaustraße, 42",12043,Berlin,50.99313,11.00617,http://youngarts-nk.de/,,
191,JUGEND-KULTURORGANISATION,Jugendtheaterwerkstatt Spandau,Gelsenkircher Str. 20,13583,Berlin,51.5271412,7.158894,https://jtw-spandau.de/,,
192,JUGEND-KULTURORGANISATION,Junge Kunst Mitte: Kinderkunsthaus/ Kinderkunstwerkstatt,Schönwalder Str. 19,13347,Berlin,52.5417415,13.370861,http://www.junge-kunst-mitte.de/category/kkw#legal,,
193,"DARSTELLENDE KUNST, MUSIK, TANZ / PERFORMANCE, SONSTIGES",k&k kultkom,Crellestraße 22,10827,Berlin,52.4882947,13.3621088,http://www.kultkom.de/,,
194,TANZSTUDIO/ PERFORMANCE,K77 studio,Kastanienallee 77,10435,Berlin,52.53637,13.40814,http://k77studio.org/de/home/,,
195,MUSEUM,Käthe-Kollwitz-Museum Berlin,Fasanenstr. 24,10719,Berlin,52.5017099,13.3269652,https://www.kaethe-kollwitz.de/,,
196,"LITERATUR, DARSTELLENDE KUNST, MUSIK",Kesselhaus Kulturbrauerei Consense GmbH,"Schönhauser Allee 36,",10435,Berlin,52.5386047,13.4130561,https://www.kesselhaus.net/,,
197,"BÜHNEN UND THEATER, DARSTELLENDE KUNST, MUSIK, TANZ / PERFORMANCE, SONSTIGES",Kinder & JugendTheater MEINE BÜHNE / ALTE KAPELLE - Theater & Performancehaus,Boxhagener Straße 99,10245,Berlin,52.5123722,13.4609285,http://www.murkelbuehne.de/,,
198,BÜHNEN UND THEATER,Kleines Theater am Südwestkorso,Südwestkorso 64,12161,Berlin,52.47331,13.3223399,https://www.kleines-theater.de/,,
199,GEDENKSTÄTTE,Klosterruine (siehe Galerie Wedding),Klosterstr. 73a,10178,Berlin,52.51837,13.41234,http://klosterruine.berlin/,,
200,"OPERN, KONZERTHÄUSER, CHÖRE",Komische Oper Berlin,Behrenstraße 55-57,10117,Berlin,52.5159935,13.3868518,https://www.komische-oper-berlin.de/,,
201,"KUNSTGALERIEN, AUSSTELLUNGSRÄUME",Kommunale Galerie Berlin,Hohenzollerndamm 176,10713,Berlin,52.4894393,13.3118077,https://www.kommunalegalerie-berlin.de/,,
202,"KUNSTGALERIEN, AUSSTELLUNGSRÄUME",Kommunale Galerie im Historischen Keller,Carl-Schurz-Str. 49/51,13597,Berlin,52.5384072,13.2045119,http://www.galeriehistorischerkeller.de/,,
203,"BÜHNEN, THEATER",Komödie am Kurfürstendamm,Kurfürstendamm 206,10719,Berlin,52.501986,13.323509,https://www.komoedie-berlin.de/start/index.html,,
204,"OPERN, KONZERTHÄUSER, CHÖRE",Konzerthaus Berlin / Schauspielhaus am Gendarmenmarkt,Gendarmenmarkt,10117,Berlin,52.5137224,13.3926698,https://www.konzerthaus.de/de/,,
205,PROJEKTRAUM/PROJEKTINITIATIVE,Kotti-Shop,Adalbertstraße 4,10999,Berlin,52.5,13.41895,http://www.kotti-shop.net/about.html,,
206,BILDENDE KUNST,KREUZBERG PAVILLON,Naunynstrasse 53,10999,Berlin,52.50231,13.41814,kreuzbergpavillon.tumblr.com,,
207,PROJEKTRAUM/PROJEKTINITIATIVE,Kronenboden,Schwedenstraße 16,13357,Berlin,52.5551018,13.3752283,www.kronenboden.de,,
208,"BÜHNEN UND THEATER, OPERN, KONZERTHÄUSER UND CHÖRE, BILDENDE KUNST, DARSTELLENDE KUNST, MUSIK, TANZ / PERFORMANCE",Kultur Büro Elisabeth gGmbH,Invalidenstr. 4a,10115,Berlin,52.53272,13.39679,www.elisabeth.berlin,,
209,"KUNST-/KULTURHÄUSER, KULTURVEREINE",Kulturbund Treptow Kulturring in Berlin,Ernststr. 14/16,12437,Berlin,52.4657052,13.4891621,https://www.kulturring.org/index.php?ortsteil=56,,
210,"KUNST-/KULTURHÄUSER, KULTURVEREINE",Kulturforum Hellersdorf,Carola-Neher-Str. 1,12619,Berlin,52.5306992,13.5925904,https://www.kulturring.org/,,
211,"KUNST-/KULTURHÄUSER, KULTURVEREINE",KulturGut,Alt-Marzahn 23,12685,Berlin,52.5441622,13.5581523,http://www.agrar-boerse-ev.de/standorte-projekte/marzahn-hellersdorf/kulturgut/,,
212,"KUNST-/KULTURHÄUSER, KULTURVEREINE",Kulturhaus,Kyffhäuser Str. 23,10781,Berlin,52.4940786,13.3522815,http://www.dezentrale-kulturarbeit.de/kulturhaus-schoeneberg-53.html,,
213,"KUNST-/KULTURHÄUSER, KULTURVEREINE",Kulturhaus Alte Feuerwache,Marchlewskistr. 6,10243,Berlin,52.5162516,13.4422397,http://www.alte-feuerwache-friedrichshain.de/alte-feuerwache/,,
214,BÜHNEN UND THEATER,"Kulturhaus Spandau, Freilichtbühne an der Zitadelle",Mauerstr. 6,13597,Berlin,52.5355225,13.2022659,http://kulturhaus-spandau.de/veranstaltungsort/freilichtbuehne-an-der-zitadelle/,,
215,PROJEKTRAUM/PROJEKTINITIATIVE,Kulturpalast Wedding International,Freienwalder Str. 20,13359,Berlin,52.5583494,13.3920178,www.kulturpalastwedding.wordpress.com,,
216,"BÜHNEN UND THEATER, DARSTELLENDE KUNST",Kulturprojekte Berlin GmbH / Schaubude Berlin,Greifswalder Straße 81-84,10405,Berlin,52.5408215,13.4389117,https://www.schaubude.berlin/,,
217,"BÜHNEN UND THEATER, LITERATUR, BILDENDE KUNST, DARSTELLENDE KUNST, MUSIK, TANZ / PERFORMANCE, SONSTIGES",Kulturring in Berlin e.V.,Giselastr. 12,10317,Berlin,48.1549648,11.5860326,https://www.kulturring.org/,,
218,BILDENDE KUNST,Kulturwerk des bbk berlin,Köthener Straße 44,10963,Berlin,52.5071185,13.3776591,https://www.bbk-berlin.de/,,
219,"KUNST-/KULTURHÄUSER, KULTURVEREINE","Kulturzentrum Adlershof, Alte Schule mit Galerie und Kunstverleih Treptow-Köpenick",Dörpfeldstr. 54/56,12489,Berlin,52.43887,13.54977,http://www.galerie-alte-schule-adlershof.de/kulturzentrum/,,
220,"KUNST-/KULTURHÄUSER, KULTURVEREINE",Kulturzentrum Kino Kiste,Heidenauer Str. 10,12627,Berlin,52.5361354,13.6094879,https://www.kiste.net/,,
221,BILDENDE KUNST,Kunsthalle am Hamburger Platz,"c/o weissensee kunsthochschle berlin, Bühringstr. 20",13086,Berlin,52.55804,13.4393999,kunsthalle.kunsthochschule-berlin.de,,
222,MUSEUM,Kunsthaus Dahlem,Käuzchensteig 8,14195,Berlin,52.4663,13.27435,http://kunsthaus-dahlem.de/,,
223,"KUNST-/KULTURHÄUSER, KULTURVEREINE",Kunsthaus Flora,Florastr. 113,12623,Berlin,52.51759,13.62182,http://www.kultur-marzahn-hellersdorf.de/KUNSTHAUS-FLORA.723.0.html,,
224,"KUNST-/KULTURHÄUSER, KULTURVEREINE",Kunsthaus Kule,Auguststraße 10,10117,Berlin,52.52644,13.39412,www.kunsthauskule.de,,
225,"KUNST-/KULTURHÄUSER, KULTURVEREINE",Kunsthaus/Sternwarte,Heerstr. 529/531,13593,Berlin,52.5230331,13.1478443,https://www.berlin.de/adressen/verein/arbeitskreis-spandauer-kuenstler-berlin-ev-4f143fecb4fc475f0b7c8900.html,,
226,"KUNST-/KULTURHÄUSER, KULTURVEREINE",Künstlerhaus,Nonnendamm 17,13627,Berlin,52.53028,13.28609,https://www.berlin.de/ba-charlottenburg-wilmersdorf/ueber-den-bezirk/bezirkliche-einrichtungen/artikel.224326.php,,
227,"KUNST-/KULTURHÄUSER, KULTURVEREINE",Künstlerhaus Bethanien (KHB),Kottbusser Str. 10,10999,Berlin,52.49698,13.4185893,https://www.bethanien.de/,,
228,"KUNST-/KULTURHÄUSER, KULTURVEREINE",Kunstremise,Jüdenstr. 1,13597,Berlin,52.5188313,13.408724,https://www.casa-ev.de/de/kunst-und-kultur/kunstremise-spandau.html,,
229,"KUNST-/KULTURHÄUSER, KULTURVEREINE",Kunstverein Neukölln e.V.,Mainzer Straße 42,12053,Berlin,49.7186476,7.3024732,www.kunstverein-neukoelln.de,,
230,"KUNSTGALERIEN, AUSSTELLUNGSRÄUME",Kunst-Werke Berlin - Institute for Contemporary Art (& Biennale Berlin --> zwei verschiedene Aspekte des Vereins),Auguststraße 69,10117,Berlin,52.5268334,13.3949574,https://www.kw-berlin.de/,,
231,PROJEKTRAUM/PROJEKTINITIATIVE,Kurt-Kurt,Lübecker Straße 13,10559,Berlin,52.1539115,11.6371594,www.kurt-kurt.de,,
232,BIBLIOTHEK,Kurt-Tucholsky-Bibliothek,Esmarchstraße 18,10407,Berlin,52.532917,13.4322404,https://www.berlin.de/stadtbibliothek-pankow/bibliotheken/kurt-tucholsky-bibliothek/,,
233,PROJEKTRAUM/PROJEKTINITIATIVE,"L’oiseau présente, c/o Ballhaus Ost",Pappelallee 15,10437,Berlin,52.5430652,13.4148661,www.loiseaupresente.blogspot.de,,
234,PROJEKTRAUM/PROJEKTINITIATIVE,Labor Neunzehn,Kiefholzstr.19/20,12435,Berlin,52.49083,13.45096,www.laborneunzehn.org,,
235,TANZSTUDIO/ PERFORMANCE,Laborgras,Großbeerenstraße 56E,10965,Berlin,52.49244,13.3841901,http://www.laborgras.com/,,
236,"BÜHNEN UND THEATER, OPERN, KONZERTHÄUSER UND CHÖRE, ARCHIVE UND BIBLIOTHEKEN, DARSTELLENDE KUNST, TANZ / PERFORMANCE",LAFT Berlin - Landesverband freie darstellende Künste e.V.,Pappelalle 15,10437,Berlin,52.5430652,13.4148661,https://www.laft-berlin.de/,,
237,PROJEKTRAUM/PROJEKTINITIATIVE,Lage Egal,Liselotte–Herrmann–Str. 26,10407,Berlin,52.53121,13.4373099,WWW.LAGE-EGAL.NET,,
238,"BÜHNEN UND THEATER, DARSTELLENDE KUNST, TANZ / PERFORMANCE",Lake Studios berlin,Scharnweberstrasse 27,12587,Berlin,52.4509175,13.6279335,https://www.lakestudiosberlin.com/,,
239,ARCHIV,Landesarchiv Berlin,Eichborndamm 115,13403,Berlin,52.57997,13.31674,http://landesarchiv-berlin.de/,,
240,LANDESMUSIKRAT,Landesmusikrat Berlin e.V.,Lübecker Straße 23,10559,Berlin,52.1563821,11.6361032,https://www.landesmusikrat-berlin.de/,,
241,MUSIKSCHULE,Leo Kestenberg Musikschule,Grunewaldstr. 6-7,10823,Berlin,52.49057,13.35734,https://www.lkms.de/,,
242,MUSIK,Leo-Borchard-Musikschule,Martin-Buber-Str. 21,14160,Berlin,52.43359,13.2562899,https://www.berlin.de/musikschule-steglitz-zehlendorf/,,
243,LITERATURHAUS,LesArt - Berliner Zentrum für Kinder- und Jugendliteratur,Weinmeisterstraße 5,10178,Berlin,52.5252889,13.4050891,http://www.lesart.org/,,
244,,Lettrétage,Mehringdamm 61,10961,Berlin,52.4908091,13.3871714,https://www.lettretage.de,,
245,PROJEKTRAUM/PROJEKTINITIATIVE,liebig12,Liebigstraße 12,10247,Berlin,52.51753,13.45707,http://www.liebig12.net/about/,,
246,LITERATURHAUS,Literarisches Colloquium Berlin (LCB),Am Sandwerder 5,14109,Berlin,52.42279,13.17849,https://www.lcb.de/home/,,
247,LITERATURHAUS,Literaturforum im Brecht-Haus,Chausseestraße 125,10115,Berlin,52.5289063,13.384675,http://lfbrecht.de/,,
248,LITERATURHAUS,Literaturhaus Berlin e.V.,Fasanenstraße 23,10719,Berlin,52.5021563,13.3268322,http://literaturhaus-berlin.de/,,
249,PROJEKTRAUM/PROJEKTINITIATIVE,Loge,Friedrichstrasse 210,10969,Berlin,52.5065271,13.390169,www.loge-berlin.com,,
250,"BIBLIOTHEK, GRAPHOTHEK",Magistratsbibliothek,Otto-Suhr-Allee 100,10585,Berlin,52.5172421,13.3082708,https://www.berlin.de/ba-charlottenburg-wilmersdorf/verwaltung/interne-dienste/verwaltungsinformationszentrum-viz/,,
251,"KUNSTGALERIEN, AUSSTELLUNGSRÄUME",Manière Noire,Waldenserstr. 7a,10551,Berlin,52.52882,13.33517,www.manierenoire.net,,
252,"BÜHNEN, THEATER",Maxim Gorki Theater,Am Festungsgraben 2,10117,Berlin,52.5188,13.39509,http://www.gorki.de/de,,
253,PROJEKTRAUM/PROJEKTINITIATIVE,MEINBLAU e.V.,Christinenstraße 18-19,10119,Berlin,52.5322475,13.4101136,www.meinblau.de,,
254,"BÜHNEN, THEATER",MEINE BÜHNE; Kinder & JugendTheater,Boxhagener Str. 99,10245,Berlin,52.5123722,13.4609285,www.murkelbuehne.de,,
255,PROJEKTRAUM/PROJEKTINITIATIVE,Mica Moca berlin project,Brunnenstrasse 169,10119,Berlin,52.53355,13.39819,www.micamoca.de,,
256,"KUNSTGALERIEN, AUSSTELLUNGSRÄUME",Mies van der Rohe Haus,Oberseestr. 60,13053,Berlin,52.5493487,13.4908126,http://www.miesvanderrohehaus.de/,,
257,ARCHIV,Mime Centrum Berlin,Mariannenpl. 2,10997,Berlin,52.5038945,13.4240746,http://www.mimecentrum.iti-germany.de/,,
258,BIBLIOTHEK,Mittelpunktbibliothek Ehm Welk,Alte Hellersdorfer Straße 125,12629,Berlin,52.5465,13.59209,https://www.berlin.de/bibliotheken-mh/bibliotheken/mittelpunktbibliothek-ehm-welk/,,
259,BIBLIOTHEK,Mittelpunktbibliothek Köpenick „Alter Markt“,Alter Markt 2,12555,Berlin,47.8001555,13.0455469,https://www.berlin.de/stadtbibliothek-treptow-koepenick/bibliotheken/mittelpunktbibliothek-koepenick/,,
260,BIBLIOTHEK,Mittelpunktbibliothek Schöneberg,Martin-Luther-Straße 77,10825,Berlin,52.4881838,13.3457162,https://www.berlin.de/stadtbibliothek-tempelhof-schoeneberg/bibliotheken/thomas-dehler-bibliothek/,,
261,BIBLIOTHEK,Mittelpunktbibliothek Treptow,Michael-Brückner-Str. 9,12439,Berlin,52.4540327,13.5139523,https://www.berlin.de/stadtbibliothek-treptow-koepenick/bibliotheken/mittelpunktbibliothek-treptow/,,
262,PROJEKTRAUM/PROJEKTINITIATIVE,mp43 projektraum für das periphere,Stollberger Str. 73,12627,Berlin,52.5335,13.60268,www.mp43.culturebase.org,,
263,MUSEUM,Museen Tempelhof-Schöneberg,Hauptstraße 40 /42,10827,Berlin,52.483893,13.350982,https://www.museen-tempelhof-schoeneberg.de,,
265,INKLUSION,Museum Blindenwerkstadt Otto Weidt in der Stiftung Gedenstätte Deutscher Widerstand,Rosenthaler Straße 39,10178,Berlin,52.5242848,13.4021617,https://www.museum-blindenwerkstatt.de/de/mbow/,,
266,"MUSEUM, ARCHIVE UND BIBLIOTHEKEN","Museum Charlottenburg-Wilmersdorf, Villa Oppenheim",Schloßstr. 55,14059,Berlin,52.4533978,13.3151808,https://www.villa-oppenheim-berlin.de/museum/baudenkmaeler/schoeler-schloesschen.html,,
267,PROJEKTRAUM/PROJEKTINITIATIVE,Museum der Unerhörten Dinge,Crellestraße 5-6,10827,Berlin,52.48692,13.35877,www.museumderunerhoertendinge.de,,
268,MUSEUM,Museum für Kommunikation,Leipziger Str. 16,10117,Berlin,52.5100104,13.386523,https://www.mfk-berlin.de,,
269,MUSEUM,Museum für Naturkunde,Invalidenstraße 43,10115,Berlin,52.5305726,13.3791755,https://www.museumfuernaturkunde.berlin/de,,
270,PROJEKTRAUM/PROJEKTINITIATIVE,Museum Köpenick,Alter Markt 1,12555,Berlin,52.445262,13.578986,https://www.museum-treptow-koepenick.de/,,
271,"MUSEUM, ARCHIVE UND BIBLIOTHEKEN",Museum Lichtenberg im Stadthaus,Türrschmidtstr. 24,10317,Berlin,52.5030134,13.4808363,http://www.museum-lichtenberg.de/,,
272,MUSEUM,Museum Pankow (2. Standort),Standort Heynstr. 8,13187,Berlin,52.5642637,13.4024174,https://www.berlin.de/museum/3108467-2926344-museum-pankow-standort-heynstrasse-8-fru.html,,
273,MUSEUM,Museum Pankow im Kultur- und Bildungszentrum Sebastian Haffner,Prenzlauer Allee 227/228,10405,Berlin,52.5332325,13.420337,https://www.berlin.de/museum-pankow/service/kontakt-team/,,
274,MUSEUM,Museum Reinickendorf,Alt-Hermsdorf 35,13467,Berlin,52.61554,13.31868,https://www.museum-reinickendorf.de/,,
276,BIBLIOTHEK,Musikbibliothek,Marzahner Promenade 55,12679,Berlin,52.546921,13.556762,https://www.berlin.de/bibliotheken-mh/bibliotheken/musikbibliothek/,,
277,MUSIKSCHULE,Musikschule Belá Bartók,Am Schloßpark 20,13187,Berlin,52.5753194,13.4099298,https://www.berlin.de/musikschule-pankow/,,
278,MUSIKSCHULE,Musikschule City West,Berkaer Platz 1,14199,Berlin,52.4777,13.28801,https://www.berlin.de/ba-charlottenburg-wilmersdorf/verwaltung/musikschule/,,
279,"MUSIK, TANZ / PERFORMANCE",Musikschule Fanny Hensel,Mathilde Jacob Platz 1,10881,Berlin,52.527057,13.3385406,https://www.berlin.de/musikschule-mitte/,,
280,MUSIKSCHULE,Musikschule Friedrichshain-Kreuzberg,Mariannenplatz 2,10997,Berlin,52.5038945,13.4240746,https://www.ms-fk.de/musikschule.html,,
281,MUSIKSCHULE,Musikschule Paul Hindemith,Boddinstraße 34,12040,Berlin,52.4797671,13.4265977,http://www.musikschuleneukoelln.de/,,
282,MUSIKSCHULE,Musikschule Reinickendorf,Buddestr. 21,13507,Berlin,52.59053,13.28664,https://www.berlin.de/ba-reinickendorf/service/einrichtungen/musikschule/,,
283,MUSIKSCHULE,Musikschule Spandau,Moritzstraße 17,13597,Berlin,50.0755201,8.2383449,http://www.musikschule-spandau-berlin.de/,,
284,PROJEKTRAUM/PROJEKTINITIATIVE,MyVisit.to,Alte Schönhauser Straße 36/37,10119,Berlin,52.5258143,13.4073464,www.myvisit.to,,
285,PROJEKTRAUM/PROJEKTINITIATIVE,nationalmuseum,Urbanstraße 100,10967,Berlin,52.48988,13.42205,www.thenationalmuseum.de,,
286,"BÜHNEN, THEATER","Naturtheater, Volkspark Hasenheide",Columbiadamm 160,10965,Berlin,52.4797,13.41637,https://www.berlin.de/kultur-und-tickets/adressen/theater/naturtheater-volkspark-4f143f17b4fc475f0b327c00.html,,
287,BILDENDE KUNST,Netzwerk freier Berliner Projekträume und –initiativen e.V.,Glockenturmstraße 20 d,14055,Berlin,52.51245,13.22186,http://www.projektraeume-berlin.net/,,
288,"KUNST-/KULTURHÄUSER, KULTURVEREINE",Neue Babylon Berlin GmbH,Rosa-Luxemburg-Straße 30,10178,Berlin,52.5261038,13.4118094,http://www.babylonberlin.de/,,
289,BILDENDE KUNST,Neue Berliner Räume e.V.,Bülowstraße 59,10783,Berlin,52.4955792,13.3667514,www.neueberlinerraeume.de,,
290,"KUNST-/KULTURHÄUSER, KULTURVEREINE",Neue Gesellschaft für bildende Künste e.V. NGBK,Oranienstraße 25,10999,Berlin,52.5010652,13.4206563,https://www.ngbk.de,,
291,"KUNST-/KULTURHÄUSER, KULTURVEREINE",Neuer Berliner Kunstverein - NBK -,Chausseestraße 128/129,10115,Berlin,52.5279246,13.3860624,http://www.nbk.org/,,
292,"OPERN, KONZERTHÄUSER, CHÖRE",Neuköllner Oper,Karl-Marx-Straße 131-133,12043,Berlin,52.4775461,13.4394368,https://www.neukoellneroper.de/,,
293,LITERATUR,NFLB e.V.,Methfesselstr. 23-25,10965,Berlin,52.4876,13.38467,http://www.nflb.de/,,
294,"BÜHNEN, THEATER",Nico and the Navigators,Husemannstr. 31,10435,Berlin,52.539518,13.4176166,http://www.navigators.de/,,
295,"KUNSTGALERIEN, AUSSTELLUNGSRÄUME",NON Berlin,Chausseestr.11,10115,Berlin,52.5286645,13.385856,www.nonberlin.com,,
296,"OPERN, KONZERTHÄUSER, CHÖRE",Novoflot,Wallstraße 32c,10179,Berlin,52.5110497,13.4113669,http://www.novoflot.de/,,
297,PROJEKTRAUM/PROJEKTINITIATIVE,OKK – Organ kritischer Kunst,Prinzenallee 29,13359,Berlin,52.5571591,13.3855341,kritische-kunst.org/de/okk-raum,,
298,PROJEKTRAUM/PROJEKTINITIATIVE,oMo artspace,Hertzbergstr. 14,12055,Berlin,52.477138,13.4481041,sarahmock.de/omo%20artspace.html,,
299,PROJEKTRAUM/PROJEKTINITIATIVE,Open Space (Volksluxus),Altenbraker Str. 22,12051,Berlin,52.4699766,13.4321548,www.openspace32.de,,
300,BILDENDE KUNST,oqbo | raum für bild wort und ton,Brunnenstrasse 63,13355,Berlin,52.54017,13.39507,http://oqbo.de/,,
301,PROJEKTRAUM/PROJEKTINITIATIVE,ORi,Friedelstraße 8,12047,Berlin,52.48858,13.42819,www.ori-berlin.de,,
302,"BILDENDE KUNST, SONSTIGES",Ostkreuz - Verein für Fotografie e.V.,Behaimstr. 34,13086,Berlin,52.5505594,13.4470447,www.ostkreuz-verein.de,,
303,"BÜHNEN, THEATER",O-TonArt Theater,Kulmer Str. 20A,10783,Berlin,52.4919733,13.3646117,http://www.o-tonart.de/,,
304,PROJEKTRAUM/PROJEKTINITIATIVE,Outside Pluto,Silbersteinstrasse 83,12051,Berlin,52.4660178,13.4296357,www.facebook.com/outsidepluto,,
305,PROJEKTRAUM/PROJEKTINITIATIVE,OZEAN,Schleiermacherstrasse 31,10961,Berlin,52.492551,13.399023,www.ozean-berlin.com,,
306,BIBLIOTHEK,Pablo-Neruda-Bibliothek,Frankfurter Allee 14 a,10247,Berlin,52.51457,13.45697,https://www.berlin.de/stadtbibliothek-friedrichshain-kreuzberg/bibliotheken/bezirkszentralbibliothek-frankfurter-allee/,,
307,"KUNST-/KULTURHÄUSER, KULTURVEREINE",Panke e. V.,Gerichtstr. 23,13347,Berlin,52.5445609,13.3725527,www.pankeculture.com,,
308,TANZSTUDIO/ PERFORMANCE,PAUL studios Berlin,Ziegrastraße 11-13,12057,Berlin,52.4763948,13.4592138,http://www.paulstudiosberlin.com/,,
309,"BÜHNEN UND THEATER, BILDENDE KUNST",Paula Reissig,,,Berlin,,,http://paulareissig.hotglue.me/,,
310,PROJEKTRAUM/PROJEKTINITIATIVE,Pavillon im Milchhof / Ateliergemeinschaft Milchhof e. V.,Schwedter Str. 232,10435,Berlin,52.5381189,13.4051834,www.milchhofpavillon.de,,
311,SONSTIGES,Performing Arts Programm/ Festival Berlin,Pappelallee 15,10437,Berlin,52.5430652,13.4148661,https://www.performingarts-festival.de/,,
312,"OPERN, KONZERTHÄUSER, CHÖRE",Philharmonischer Chor e.V.,Beyreuther Straße 8,10787,Berlin,52.5027045,13.3438712,https://www.philharmonischer-chor.de/,,
313,DARSTELLENDE KUNST,Platypus Theater,Markgrafenstraße 87,10969,Berlin,52.50333,13.39458,https://platypus-theater.de/,,
314,PROJEKTRAUM/PROJEKTINITIATIVE,PremArts Berlin,Oppelner Str. 34,10997,Berlin,52.4985312,13.4399324,www.premarts.de,,
315,PROJEKTRAUM/PROJEKTINITIATIVE,PRIMA CENTER BERLIN,Biesentalerstr. 24,13359,Berlin,52.5575216,13.386067,www.prima-center.net/PCB.htm,,
316,"BÜHNEN, THEATER",Prime Time Theater,Müllerstraße 163,13353,Berlin,52.5436459,13.3635035,http://primetimetheater.de/,,
317,PROJEKTRAUM/PROJEKTINITIATIVE,Prolog,Lehderstraße 119,13086,Berlin,52.5475254,13.4466998,www.prolog-zeichnung-und-text.de,,
318,"KUNST-/KULTURHÄUSER, KULTURVEREINE",Radialsystem V,Holzmarktstraße 33,10243,Berlin,52.51057,13.42873,https://radialsystem.de/,,
319,"BÜHNEN, THEATER",RambaZamba e.V.,Schönhauser Allee 36-39,10435,Berlin,52.5383047,13.4127573,https://rambazamba-theater.de/,,
320,"BÜHNEN, THEATER",Ratibortheater,Cuvrystraße 20a,10997,Berlin,52.4974949,13.4434002,http://www.ratibortheater.de/,,
321,"BÜHNEN, THEATER",Ratz Fatz,Schnellerstr. 81,12439,Berlin,52.4519778,13.5321832,http://ratz-fatz.kulturfenster-berlin.de/,,
322,PROJEKTRAUM/PROJEKTINITIATIVE,Raum für drastische Maßnahmen,Oderstr. 34,10247,Berlin,52.509315,13.4728089,www.rpunkt.org,,
323,PROJEKTRAUM/PROJEKTINITIATIVE,RAUM FÜR ZWECKFREIHEIT,Adalbertstraße 71,10997,Berlin,52.5043789,13.4213367,www.zweckfreiheit.de,,
324,PROJEKTRAUM/PROJEKTINITIATIVE,Raumerweiterungshalle,Markgrafendamm 24c,10245,Berlin,52.502559,13.4663169,www.raumerweiterungshalle.net,,
325,PROJEKTRAUM/PROJEKTINITIATIVE,RaumlaborBerlin,Am Flutgraben 3,12435,Berlin,52.4970977,13.4516979,www.raumlabor.net,,
326,MUSEUM,Regionalmuseum/ Mitte Museum,Pankstr. 47,13357,Berlin,52.5511861,13.3800411,http://www.mittemuseum.de/,,
327,"BÜHNEN, THEATER",Renaissance Theater,Knesebeckstraße 100,10623,Berlin,52.5103625,13.3234448,http://www.renaissance-theater.de/,,
328,"BÜHNEN, THEATER",Rimini Protokoll,Tempelhofer Ufer 10,10963,Berlin,52.4980786,13.3861327,http://www.rimini-protokoll.de/website/de/,,
329,PROJEKTRAUM/PROJEKTINITIATIVE,rosalux,Wriezener Straße 12,13359,Berlin,52.5574,13.38947,www.rosalux.com,,
330,"KUNSTGALERIEN, AUSSTELLUNGSRÄUME",Ruine der Künste,Hittorfstraße 5,14195,Berlin,52.45178,13.28552,http://home.snafu.de/ruine-kuenste.berlin/fenster.htm,,
331,"OPERN, KONZERTHÄUSER, CHÖRE",Rundfunk-Orchester und -Chöre GmbH,Charlottenstraße 56,10117,Berlin,52.513363,13.3910945,https://www.roc-berlin.de/content/home/index_ger.html,,
332,,Sammlungsdinge,,,,,,www.sammlungsdinge.de,,
333,TANZSTUDIO/ PERFORMANCE,Sasha Waltz & Guests (hängen mit Sophiensaelen etc. zusammen),Sophienstraße 3,10178,Berlin,52.5253646,13.4013403,https://www.sashawaltz.de/,,
334,PROJEKTRAUM/PROJEKTINITIATIVE,SAVVY Contemporary,Plantagenstraße 31,13347,Berlin,52.5462286,13.3665865,www.savvy-contemporary.com,,
335,"BÜHNEN, THEATER",Schaubühne am Lehniner Platz,Kurfürstendamm 153,10709,Berlin,52.498681,13.302262,https://www.schaubuehne.de/,,
336,BIBLIOTHEK,Schiller-Bibliothek,Mü̈llerstraße 149,13353,Berlin,52.5469,13.35766,https://www.berlin.de/stadtbibliothek-mitte/bibliotheken/schiller-bibliothek-mit-hugojugendmedienetage/,,
337,"MUSEUM, LITERATUR, BILDENDE KUNST, MUSIK",Schloss Biesdorf,Alt Biesdorf 55,12683,Berlin,52.5098114,13.5576429,http://schlossbiesdorf.de/,,
338,"BÜHNEN, THEATER",Schlosspark Theater,Schloßstraße 48,12165,Berlin,52.4546907,13.3180107,https://www.schlossparktheater.de/,,
339,"BÜHNEN, THEATER",Schlossplatztheater,Alt-Köpenick 31,12555,Berlin,52.44506,13.57437,https://schlossplatztheater.de/,,
340,JUGEND-KULTURORGANISATION,Schmetterlingshorst,Zum Schmetterlingshorst 2,12559,Berlin,52.4122046,13.6099181,http://www.schmetterlingshorst.de/,,
341,MUSEUM,Schoelerschlößchen,Wilhelmsaue 126,10715,Berlin,52.4850266,13.3267419,https://www.villa-oppenheim-berlin.de/museum/baudenkmaeler/schoeler-schloesschen.html,,
342,MUSEUM,Schöneberg Museum/Jugend Museum,Hauptstr. 40-42,10827,Berlin,52.4839118,13.3509767,https://www.museen-tempelhof-schoeneberg.de/jugendmuseum.html,,
343,MUSIKSCHULE,Schostakowitsch-Musikschule,Paul-Junius Str. 71,10369,Berlin,52.5285,13.47802,http://www.schostakowitsch-musikschule.de/,,
344,BIBLIOTHEK,Schulbibliothek,Blücherstr. 46-47,10961,Berlin,52.4916474,13.4044907,https://www.berlin.de/stadtbibliothek-friedrichshain-kreuzberg/bibliotheken/schulbibliothek/,,
345,"KUNST-/KULTURHÄUSER, KULTURVEREINE",Schwartzsche Villa,Grunewaldstraße 55,12165,Berlin,52.4882476,13.3384075,http://www.kultur-steglitz-zehlendorf.de/schwartzsche_villa.html,,
346,MUSEUM,Schwules Museum,Lützowstraße 73,10785,Berlin,52.5042832,13.3579061,https://www.schwulesmuseum.de/,,
347,PROJEKTRAUM/PROJEKTINITIATIVE,SCOTTY,Oranienstr. 46,10969,Berlin,52.50289,13.4139429,www.scottyenterprises.de,,
348,PROJEKTRAUM/PROJEKTINITIATIVE,Serendipity Gallery,Winsstraße 24,10405,Berlin,52.53476,13.4267299,www.serendipity-gallery.de,,
349,"BÜHNEN, THEATER",SheShePop,Mariannenpl. 2,10997,Berlin,52.5038945,13.4240746,http://www.sheshepop.de/,,
350,"KUNST-/KULTURHÄUSER, KULTURVEREINE",silent green Kulturproduktionen GmbH & Co. KG,Gerichtstraße 35,13347,Berlin,52.5450039,13.3665422,https://www.silent-green.net/,,
351,PROJEKTRAUM/PROJEKTINITIATIVE,singuhr sound gallery,Danziger Straße 101,10405,Berlin,52.537467,13.4307639,www.singuhr.de,,
352,SONSTIGES,SinnSinn,Großbeerenstr. 70,10963,Berlin,52.49554,13.38447,www.sinnsinn.com,,
353,PROJEKTRAUM/PROJEKTINITIATIVE,SOMA ART SPACE BERLIN,Liegnitzer str. 35,10999,Berlin,52.4944,13.43594,http://somaartspace.de/press.html,,
354,"BILDENDE KUNST, TANZ / PERFORMANCE",SomoS Art House,Kottbusser Damm 95,10967,Berlin,52.4939877,13.4219165,www.somos-arts.org,,
355,"BÜHNEN, THEATER",Sonnenuhr e.V.,Schönhauser Allee 36-39,10435,Berlin,52.5383047,13.4127573,https://rambazamba-theater.de/,,
357,"BÜHNEN, THEATER",Sophiensæle,Sophienstraße 18,10178,Berlin,52.5256399,13.4011836,http://www.sophiensaele.com/,,
358,PROJEKTRAUM/PROJEKTINITIATIVE,SOUTERRAIN,Sophienstraße 21,10178,Berlin,48.7722961,9.1724464,www.souterrain-berlin.de,,
359,PROJEKTRAUM/PROJEKTINITIATIVE,SOX,Oranienstraße 175,10999,Berlin,52.5012346,13.4186659,www.sox-berlin.com,,
360,PROJEKTRAUM/PROJEKTINITIATIVE,Spinner & Weber,Brüsselerstr.37,13353,Berlin,52.5461466,13.3488692,spinnerundweber.de,,
361,PROJEKTRAUM/PROJEKTINITIATIVE,Spor Klübü,Freienwalder Straße 31,13359,Berlin,52.54405,13.49297,www.koloniewedding.de/sporkluebue/,,
362,"KUNST-/KULTURHÄUSER, KULTURVEREINE",St. Elisabeth-Kirche,Invalidenstr. 4a,10115,Berlin,52.53272,13.39679,https://www.elisabeth.berlin/,,
364,BÜHNEN UND THEATER,Staatsballett Berlin,Richard-Wagner Straße 10/ Bismarckstraße 110,10585/10625,Berlin,52.5126976,13.3075637,https://www.staatsballett-berlin.de/de/,,
365,"OPERN, KONZERTHÄUSER, CHÖRE",Staatsoper Unter den Linden,Unter den Linden 7,10117,Berlin,52.5168,13.39433,https://www.staatsoper-berlin.de/de/,,
366,MUSEUM,Stadtmuseum Berlin,Poststraße 13/14,10178,Berlin,52.5161294,13.4069407,https://www.stadtmuseum.de/,,
367,BIBLIOTHEK,Stadtteil- und Schulbibliothek Rudow,Bildhauerweg 9,12355,Berlin,52.41759,13.48999,https://www.berlin.de/stadtbibliothek-neukoelln/bibliotheken/stadtteilbibliothek-rudow/,,
368,BIBLIOTHEK,Stadtteilbibliothek Adlershof „Stefan Heym Bibliothek“,Dörpfeldstraße 56,12489,Berlin,52.43889,13.55008,https://www.berlin.de/stadtbibliothek-treptow-koepenick/bibliotheken/adlershof/,,
369,BIBLIOTHEK,Stadtteilbibliothek Altglienicke,Ortolfstraße 182 – 184,12524,Berlin,52.4032619,13.5286031,https://www.berlin.de/stadtbibliothek-treptow-koepenick/bibliotheken/altglienicke/,,
370,BIBLIOTHEK,Stadtteilbibliothek Alt-Treptow „Manfred-Bofinger-Bibliothek“,Karl-Kunger-Straße 30,12435,Berlin,52.4888165,13.4506911,https://www.berlin.de/stadtbibliothek-treptow-koepenick/bibliotheken/alt-treptow/,,
371,BIBLIOTHEK,Stadtteilbibliothek Britz-Süd,Gutschmidtstraße 33,12359,Berlin,52.4367161,13.4460327,https://www.berlin.de/stadtbibliothek-neukoelln/bibliotheken/stadtteilbibliothek-britz-sued/,,
372,BIBLIOTHEK,Stadtteilbibliothek Buch,Wiltbergstraße 19–23,13125,Berlin,52.6356478,13.4942881,https://www.berlin.de/stadtbibliothek-pankow/bibliotheken/stadtteilbibliothek-buch/,,
373,BIBLIOTHEK,Stadtteilbibliothek Erich Weinert,Helene-Weigel-Platz 4,12681,Berlin,52.5281457,13.5382341,https://www.berlin.de/bibliotheken-mh/bibliotheken/stadtteilbibliothek-erich-weinert/,,
374,BIBLIOTHEK,Stadtteilbibliothek Falkenhagener Feld,Westerwaldstraße 9,13589,Berlin,50.7586002,7.1732929,https://www.berlin.de/stadtbibliothek-spandau/bibliotheken/falkenhagener-feld/artikel.182168.php,,
375,BIBLIOTHEK,Stadtteilbibliothek Friedrichshagen „Johannes-Bobrowski-Bibliothek“,Peter-Hille-Straße 1,12587,Berlin,52.4548604,13.6214304,https://www.berlin.de/stadtbibliothek-treptow-koepenick/bibliotheken/friedrichshagen/,,
376,BIBLIOTHEK,Stadtteilbibliothek Frohnau,Fuchssteinerweg 17,13465,Berlin,52.6354477,13.2951501,https://www.berlin.de/stadtbibliothek-reinickendorf/bibliotheken/stadtteilbibliothek-frohnau/artikel.336740.php,,
377,BIBLIOTHEK,Stadtteilbibliothek Halemweg,Halemweg 18,13627,Berlin,52.53772,13.28698,https://www.wir-bieten-vielfalt-einen-ort.de/stadtteilbibliothek-halemweg/,,
378,BIBLIOTHEK,Stadtteilbibliothek Haselhorst,Gartenfelder Straße 104,13599,Berlin,52.5429465,13.2391798,https://www.berlin.de/stadtbibliothek-spandau/bibliotheken/haselhorst/stadtteilbibliothek-haselhorst-182097.php,,
379,BIBLIOTHEK,Stadtteilbibliothek Heerstrasse,Obstallee 22f,13593,Berlin,52.5222515,13.1652726,https://www.berlin.de/stadtbibliothek-spandau/bibliotheken/heerstrasse/stadtteilbibliothek-heerstrasse-182099.php,,
380,BIBLIOTHEK,Stadtteilbibliothek Heinrich von Kleist,Havemannstraße 17 b,12689,Berlin,52.5687,13.5727299,https://www.berlin.de/bibliotheken-mh/bibliotheken/stadtteilbibliothek-heinrich-von-kleist/,,
381,BIBLIOTHEK,Stadtteilbibliothek im Gemeinschaftshaus,Bat-Yam-Platz 1,12353,Berlin,52.425502,13.4614583,https://www.berlin.de/stadtbibliothek-neukoelln/bibliotheken/stadtteilbibliothek-im-gemeinschaftshaus/,,
382,BIBLIOTHEK,Stadtteilbibliothek Karow,Achillesstraße 77,13125,Berlin,52.6165571,13.491927,https://www.berlin.de/stadtbibliothek-pankow/bibliotheken/stadtteilbibliothek-karow/,,
383,BIBLIOTHEK,Stadtteilbibliothek Kaulsdorf Nord,Cecilienplatz 12,12619,Berlin,52.5217012,13.5898028,https://www.berlin.de/bibliotheken-mh/bibliotheken/stadtteilbibliothek-kaulsdorf-nord/,,
384,BIBLIOTHEK,Stadtteilbibliothek Lankwitz,Bruchwitzstraße 37,12247,Berlin,52.4361117,13.3505846,https://www.berlin.de/stadtbibliothek-steglitz-zehlendorf/bibliotheken/stadtteilbibliothek-lankwitz/,,
385,BIBLIOTHEK,Stadtteilbibliothek Mahlsdorf,Alt Mahlsdorf 24–26,12623,Berlin,52.5055294,13.6103352,https://www.berlin.de/bibliotheken-mh/bibliotheken/stadtteilbibliothek-mahlsdorf/,,
386,BIBLIOTHEK,Stadtteilbibliothek Marienfelde Medienhaus Marienfelde,Marienfelder Allee 107/109,12277,Berlin,52.41684,13.36658,https://www.berlin.de/stadtbibliothek-tempelhof-schoeneberg/bibliotheken/stadtteilbibliothek-marienfelde/,,
387,BIBLIOTHEK,Stadtteilbibliothek Reinickendorf-West,Auguste-Viktoria-Allee 29–31,13403,Berlin,52.57138,13.31537,https://www.berlin.de/stadtbibliothek-reinickendorf/bibliotheken/stadtteilbibliothek-reinickendorf-west/artikel.336767.php,,
389,"KUNSTGALERIEN, AUSSTELLUNGSRÄUME",State of the ART,Mansteinstrasse 2,10783,Berlin,52.4929353,13.3666947,www.state-of-the-art-berlin.com,,
390,SONSTIGES,STATE Studio,Hauptstr. 3,10827,Berlin,52.4901337,13.3596119,https://state-studio.com/,,
391,"BILDENDE KUNST, TANZ / PERFORMANCE",Stephanie Hanna,Dieffenbachstr. 35,10967,Berlin,52.4917379,13.4191531,http://www.stephaniehanna.de/de/,,
392,"MUSEUM, GEDENKSTÄTTEN",Stiftung Berliner Mauer,Bernauer Str. 111,13355,Berlin,52.53523,13.38943,https://www.stiftung-berliner-mauer.de/de/,,
393,"OPERN, KONZERTHÄUSER, CHÖRE",Stiftung Berliner Philharmoniker,Herbert-von-Karajan-Straße 1,10785,Berlin,52.5098485,13.3699181,https://www.berliner-philharmoniker.de/,,
394,MUSEUM,Stiftung Bröhan-Museum,Schloßstraße 1a,14059,Berlin,52.4648378,13.3264879,http://www.broehan-museum.de/,,
395,"MUSEUM, GEDENKSTÄTTEN",Stiftung Denkmal für die ermordeten Juden Europas,Georgenstraße 23,10117,Berlin,52.5194438,13.3866422,https://www.stiftung-denkmal.de,,
396,MUSEUM,Stiftung Deutsches Technikmuseum Berlin,Trebbiner Str. 9,10963,Berlin,52.4986278,13.3768443,https://sdtb.de/stiftung/startseite/,,
397,MUSEUM,Stiftung Domäne Dahlem,Königin-Luise-Straße 49,14195,Berlin,52.4591264,13.2892486,http://www.domaene-dahlem.de/home/,,
398,MUSEUM,Stiftung Georg-Kolbe-Museum,Sensburger Allee 25,14055,Berlin,52.5099354,13.2548428,https://www.georg-kolbe-museum.de/,,
399,SONSTIGES,Stiftung Preußischer Kulturbesitz,Von-der-Heydt-Str. 16-18,10785,Berlin,52.5067062,13.3551828,https://www.preussischer-kulturbesitz.de,,
400,GEDENKSTÄTTE,Stiftung Topographie des Terrors,Niederkirchnerstraße 8,10963,Berlin,52.5067418,13.3834565,http://www.topographie.de/topographie-des-terrors/stiftung/,,
401,"BIBLIOTHEK, GRAPHOTHEK",Stiftung Zentral- und Landesbibliothek Berlin,Breite Straße 30-36,10178,Berlin,52.51534,13.40446,https://www.zlb.de/,,
402,"BÜHNEN, THEATER",Studio Verlin (gehört zu Constanza Macras - DorkyPark),Klosterstraße 44,10179,Berlin,52.5178019,13.4117099,http://www.dorkypark.org/site/studio-verlin/,,
403,"BÜHNEN, THEATER",Studio Я im Maxim Gorki Theater,Hinter dem Gießhaus 2,10117,Berlin,52.5190309,13.3962344,https://gorki.de/de/node/1484,,
404,PROJEKTRAUM/PROJEKTINITIATIVE,Supalife,Raumerstrasse 40,10437,Berlin,52.5439016,13.4162718,http://supalife.de/,,
405,PROJEKTRAUM/PROJEKTINITIATIVE,super bien!,Schwedterstr. 232,10435,Berlin,52.5381189,13.4051834,www.superbien.de,,
406,BIBLIOTHEK,Tadtteilbibliothek Kladow,Sakrower Landstraße 2,14089,Berlin,52.4533447,13.1430328,https://www.berlin.de/stadtbibliothek-spandau/bibliotheken/kladow/stadtteilbibliothek-kladow-182136.php,,
407,"BÜHNEN, THEATER",TAK Theater im Aufbau Haus,Prinzenstraße 85 F,10969,Berlin,52.503197,13.409881,http://tak-berlin.de/,,
408,PROJEKTRAUM/PROJEKTINITIATIVE,Takt Kunstprojektraum,Neue Hochstraße 8,13347,Berlin,52.5398023,13.3757996,www.taktberlin.org,,
409,PROJEKTRAUM/PROJEKTINITIATIVE,tamtamART,Weichselstr.8,10247,Berlin,52.48434,13.43333,www.tamtamart.de,,
410,SONSTIGES,Tanz ist KLASSE! e.V.; c/o Staatsballett Berlin,Richard-Wagner-Str. 10,10585,Berlin,52.5127766,13.3084693,https://www.staatsballett-berlin.de/tanz-ist-klasse,,
411,TANZSTUDIO/ PERFORMANCE,Tanzbüro Berlin,Uferstr. 23,13357,Berlin,52.5518019,13.3748991,http://www.tanzraumberlin.de/,,
412,TANZSTUDIO/ PERFORMANCE,Tanzcompanie Rubato,Karl-Kunger Str. 13,12435,Berlin,52.49115,13.44708,http://www.tanzcompagnie-rubato.de/,,
413,TANZSTUDIO/ PERFORMANCE,Tanzfabrik Berlin e.V.,Uferstraße 23,13357,Berlin,52.5518019,13.3748991,https://www.tanzfabrik-berlin.de/,,
414,TANZSTUDIO/ PERFORMANCE,Tanztage Berlin,Sophienstraße 18,10178,Berlin,52.5256399,13.4011836,https://www.sophiensaele.com/festival.php?IDfestival=119,,
415,MUSEUM,Tatwerk Berlin,Hasenheide 9,10967,Berlin,52.4874443,13.4223709,https://www.tatwerk-berlin.de/de/,,
416,MUSEUM,Tempelhof Museum & Galerie im Tempelhof Museum,Alt-Mariendorf 43,12107,Berlin,52.4395674,13.3854428,https://www.museen-tempelhof-schoeneberg.de/uebersicht-tempelhof-museum.html,,
417,"BÜHNEN UND THEATER, MUSEUM, ARCHIVE UND BIBLIOTHEKEN, GEDENKSTÄTTEN, MUSIK",Tempelhof Projekt GmbH,Columbiadamm 10/A2,12101,Berlin,52.4840447,13.3912285,https://www.thf-berlin.de/tempelhof-projekt-gmbh/,,
418,PROJEKTRAUM/PROJEKTINITIATIVE,tête,Schönhauser Allee 161A,10435,Berlin,52.5359415,13.4119389,www.tete.nu,,
419,MUSEUM,the temporary Bauhaus-Archiv/ Museum für Gestaltung),Knesebeckstraße 1-2,10623,Berlin,52.51065,13.32265,https://www.bauhaus.de/de/,,
420,"BÜHNEN, THEATER",Theater an der Parkaue,Parkaue 29,10367,Berlin,52.5167789,13.4771513,http://parkaue.de/unterwegs/,,
421,"BÜHNEN, THEATER",Theater auf der Zitadelle,Am Juliusturm 64,13599,Berlin,52.5403517,13.2122902,https://www.theater-zitadelle.de/,,
422,"BÜHNEN, THEATER",Theater Coupé,Hohenzollerndamm 176,10713,Berlin,52.4894393,13.3118077,https://www.villa-oppenheim-berlin.de/,,
423,"BÜHNEN, THEATER",Theater Expedition Metropolis,Ohlauer Str. 41,10999,Berlin,52.49418,13.4293,http://www.expedition-metropolis.de/,,
424,"BÜHNEN, THEATER",Theater im Palais,Am Festungsgraben 1,10117,Berlin,52.5188614,13.3957532,http://www.theater-im-palais.de/,,
425,"BÜHNEN, THEATER",Theater o.N.,Kollwitzstraße 53,10405,Berlin,52.5349541,13.4160621,https://www.theater-on.de/,,
426,"BÜHNEN, THEATER",Theater Strahl,Martin-Luther-Straße 77,10825,Berlin,52.4881838,13.3457162,http://www.theater-strahl.de/,,
427,"BÜHNEN UND THEATER, DARSTELLENDE KUNST, TANZ / PERFORMANCE",Theater Thikwa,Fidicinstraße 3,10965,Berlin,52.486954,13.388507,http://www.thikwa.de/,,
428,"BÜHNEN, THEATER",Theater Verlängertes Wohnzimmer,Frankfurter Allee 91,10247,Berlin,52.5142574,13.4717477,http://www.theater-verlaengertes-wohnzimmer.de/,,
429,"BÜHNEN, THEATER",Theater X,Wiclefstraße 32,10551,Berlin,52.5313705,13.3294212,http://www.grenzen-los.eu/jugendtheaterbuero/,,
430,"BÜHNEN, THEATER",Theaterdiscounter,Klosterstraße 44,10179,Berlin,52.5178019,13.4117099,https://theaterdiscounter.de/,,
431,"BÜHNEN, THEATER",Theaterforum Kreuzberg,Eisenbahnstraße 21,10997,Berlin,52.5040006,13.4345971,https://www.tfk-berlin.de/,,
432,"BÜHNEN, THEATER","Theaterhaus Berlin Mitte, Haus C",Wallstraße 32c,10179,Berlin,52.5110497,13.4113669,https://www.theaterhaus-berlin.com/,,
433,BIBLIOTHEK,Theodor-Heuss-Bibliothek,Hauptstraße 40,10827,Berlin,48.136469,17.008135,https://www.berlin.de/stadtbibliothek-tempelhof-schoeneberg/bibliotheken/mittelpunktbibliothek-schoeneberg/,,
434,"BÜHNEN, THEATER",tik - Theater im Kino (nord/süd),nord: Rigaer Str. 77 / süd: Boxhagener Str. 18,10247,Berlin,52.512839,13.45532,http://www.theater-im-kino.de/,,
435,"BÜHNEN, THEATER",Tiyatrom - Türkisches Theater Berlin,Alte Jakobstraße 12,10969,Berlin,52.503931,13.3993781,http://www.tiyatrom.de/,,
436,PROJEKTRAUM/PROJEKTINITIATIVE,top e. V. – Verein zur Förderung kultureller Praxis,Stockholmerstr. 30,13359,Berlin,52.5604449,13.3833709,www.top-ev.de,,
437,MUSEUM,U144,Ackerstraße 18,10115,Berlin,52.5313424,13.3966893,www.untergrundmuseum.de,,
438,TANZSTUDIO/ PERFORMANCE,Uferstudios GmbH,Uferstraße 8,13357,Berlin,52.5518185,13.3743709,http://www.uferstudios.com/,,
439,PROJEKTRAUM/PROJEKTINITIATIVE,Uhrwerk,Soldiner Straße 103,13359,Berlin,52.5573676,13.390408,www.koloniewedding.de/orten.php?ort=Uhrwerk&uberuns,,
440,PROJEKTRAUM/PROJEKTINITIATIVE,UNWETTER,,,Berlin,,,www.un-wetter.net,,
441,PROJEKTRAUM/PROJEKTINITIATIVE,uqbar,Schwedenstr. 16,13357,Berlin,52.5551018,13.3752283,www.uqbar-ev.de,,
442,TANZSTUDIO/ PERFORMANCE,URBANRAUM,Urbanstraße 93,10967,Berlin,52.4890192,13.4228777,http://urbanraum.com/,,
443,"BÜHNEN, THEATER",Vaganten Bühne Gemeinnützige (SOMMERPAUSE),Kantstraße 12A,10623,Berlin,52.50598,13.32859,https://www.vaganten.de/startseite/,,
444,BILDENDE KUNST,Verein der Berliner Künstlerinnen VdBK 1867 e.V.,Gitschiner Str. 61,10969,Berlin,52.49869,13.40933,http://www.vdbk1867.de/,,
445,PROJEKTRAUM/PROJEKTINITIATIVE,"Videoart at Midnight, c/o BABYLON",Rosa-Luxemburg-Platz,10178,Berlin,52.5266977,13.4113305,www.videoart-at-midnight.info,,
446,"BÜHNEN UND THEATER, LITERATUR, BILDENDE KUNST, DARSTELLENDE KUNST, TANZ / PERFORMANCE",Vierte Welt,Lychener Str. 37 (Postadresse Vierte Welt),10437,Berlin,52.5435389,13.4171045,http://viertewelt.de,,
447,"KUNST-/KULTURHÄUSER, KULTURVEREINE",Villa Elisabeth,Invalidenstraße 3,10115,Berlin,52.5331269,13.3972411,https://www.elisabeth.berlin/,,
448,"BILDENDE KUNST, TANZ / PERFORMANCE",Vitrine01,Ubahnhof Birkenstraße,10551,Berlin,52.5323055,13.3413506,https://www.facebook.com/vitrinenulleins/,,
449,"BÜHNEN, THEATER",Volksbühne,Linienstraße 227,10178,Berlin,52.5269137,13.411792,https://www.volksbuehne.berlin/de/,,
450,"BÜHNEN, THEATER","WABE, Theater unterm Dach, Galerie Parterre/Kunstsammlung, Jugendtheateretage/Kunstwerkstätten",Danziger Str. 101-105,10405,Berlin,52.537467,13.4307639,https://www.theateruntermdach-berlin.de/index.html,,
451,PROJEKTRAUM/PROJEKTINITIATIVE,Walden Kunstausstellungen,Hufelandstraße 35,10407,Berlin,52.5309279,13.4347669,www.galerie-walden.de,,
452,MUSEUM,Werkbundarchiv - Museum der Dinge,Oranienstraße 25,10999,Berlin,52.5010652,13.4206563,https://www.museumderdinge.de/,,
453,WERKSTATT,WerkStadt e.V.,Emser Straße 124,12051,Berlin,52.4690073,13.4360672,www.werkstadt-berlin.com,,
454,"MUSIK, SONSTIGES",Werkstatt der Kulturen,Wissmannstraße 32,12049,Berlin,52.48392,13.42283,info@werkstatt-der-kulturen.de,,
455,WERKSTATT,Werkstatt künstlerische Lithografie,Defreggerstr. 12,12435,Berlin,52.4840505,13.4673226,http://www.lithowerkstatt-berlin.de/,,
456,PROJEKTRAUM/PROJEKTINITIATIVE,WestGermany – Berlin,Skalitzer Str. 133,10999,Berlin,52.499294,13.419727,https://westgermany.wordpress.com/2013/09/22/15/,,
457,BIBLIOTHEK,Wilhelm-Liebknecht-/Namik-Kemal-Bibliothek,Adalbertstr. 2,10999,Berlin,52.4998507,13.4185264,https://www.berlin.de/stadtbibliothek-friedrichshain-kreuzberg/bibliotheken/mittelpunktbibliothek-adalbertstrasse/,,
458,BIBLIOTHEK,Wolfdietrich-Schnurre-Bibliothek,Bizetstraße 41,13088,Berlin,52.547703,13.4525391,https://www.berlin.de/stadtbibliothek-pankow/bibliotheken/wolfdietrich-schnurre-bibliothek/,,
459,PROJEKTRAUM/PROJEKTINITIATIVE,Wolfgang Krause Projekte,Oderberger Str. 4,10435,Berlin,52.53837,13.41094,www.wolfgang-krause-projekte.de,,
460,"BÜHNEN UND THEATER, BILDENDE KUNST, DARSTELLENDE KUNST",YouKunst Jugendkunstschule Steglitz-Zehlendorf,Am Eichgarten 14,12167,Berlin,52.4462121,13.33493,http://youkunst.de/,,
461,"OPERN, KONZERTHÄUSER, CHÖRE",Zeitgenössische Oper Berlin,Schwedter Str. 269,10119,Berlin,52.5326117,13.4120481,https://www.zeitgenoessische-oper.de/kontakt,,
462,SONSTIGES,Zeitgenössischer Tanz Berlin e.V.,Uferstr. 23,13357,Berlin,52.5518019,13.3748991,www.ztberlin.de,,
463,BIBLIOTHEK,Zentral- und Landesbibliothek Berlin,Breite Str. 30-36,10178,Berlin,52.51534,13.40446,https://www.zlb.de,,
464,SONSTIGES,Zentrum Bundesrepublik Deutschland des Internationalen Theaterinstituts e.V. / MIME Centrum,Mariannenplatz 2,10997,Berlin,52.5038945,13.4240746,https://www.iti-germany.de/home/,,
465,"KUNST-/KULTURHÄUSER, KULTURVEREINE",ZENTRUM danziger50,Danziger Str. 50,10435,Berlin,52.5395692,13.4200047,http://danziger50.com/,,
466,"KUNSTGALERIEN, AUSSTELLUNGSRÄUME",Zentrum für offene Kommunikation,Bänschstr. 20,10247,Berlin,52.5187958,13.4609869,zok.cultd.net,,
467,"KUNST-/KULTURHÄUSER, KULTURVEREINE",Zitadelle Spandau,Am Juliusturm 64,13599,Berlin,52.5403517,13.2122902,http://www.zitadelle-berlin.de/,,
468,PROJEKTRAUM/PROJEKTINITIATIVE,ZK/U,Siemensstrasse 27,10551,Berlin,52.533799,13.336468,www.zku-berlin.org,,
469,SONSTIGES,Zona Dynamic,"Selchower Strasse, 9",12049,Berlin,52.479019,13.4226189,www.zonadynamic.com,,
470,"KUNST-/KULTURHÄUSER, KULTURVEREINE",ZUKUNFT am Ostkreuz/ Theater Zukunft,Laskerstr. 5 / Markgrafendamm,10245,Berlin,52.5013,13.4666,https://zukunft-ostkreuz.de/,,
471,PROJEKTRAUM/PROJEKTINITIATIVE,zwanzigquadratmeter,Petersburger Straße 73,10249,Berlin,52.5196556,13.4528209,www.zqmberlin.org,,
472,PROJEKTRAUM/PROJEKTINITIATIVE,Zwitschermaschine c/o Kulturpark 3000 eV,Potsdamer Str. 161,10783,Berlin,52.4948712,13.3614554,www.zwitschermaschine-berlin.de/,,